[
  {
    "area": "M A Marg S.O",
    "pincode": "400008",
    "district": "MUMBAI"
  },
  {
    "area": "Madhavbaug S.O",
    "pincode": "400004",
    "district": "MUMBAI"
  },
  {
    "area": "Mahad Sub Division",
    "pincode": "402301",
    "district": "MUMBAI"
  },
  {
    "area": "Maharashtra Circle",
    "pincode": "400001",
    "district": "MUMBAI"
  },
  {
    "area": "Maharashtra Postal Account Office (DAP)",
    "pincode": "400001",
    "district": "MUMBAI"
  },
  {
    "area": "Mahim Bazar S.O",
    "pincode": "400016",
    "district": "MUMBAI"
  },
  {
    "area": "Mahim East S.O",
    "pincode": "400016",
    "district": "MUMBAI"
  },
  {
    "area": "Mahim H.O",
    "pincode": "400016",
    "district": "MUMBAI"
  },
  {
    "area": "Malabar Hill S.O",
    "pincode": "400006",
    "district": "MUMBAI"
  },
  {
    "area": "Mandvi S.O (Mumbai)",
    "pincode": "400003",
    "district": "MUMBAI"
  },
  {
    "area": "Bandra W eCOM Nodal Delivery Centre",
    "pincode": "400150",
    "district": "MUMBAI"
  },
  {
    "area": "Bazargate SO",
    "pincode": "400001",
    "district": "MUMBAI"
  },
  {
    "area": "BC FGN Mumbai",
    "pincode": "400022",
    "district": "MUMBAI"
  },
  {
    "area": "BCRC DADAR",
    "pincode": "400014",
    "district": "MUMBAI"
  },
  {
    "area": "BCRC DADAR Mail Office",
    "pincode": "400014",
    "district": "MUMBAI"
  },
  {
    "area": "BEST STaff Quarters S.O",
    "pincode": "400012",
    "district": "MUMBAI"
  },
  {
    "area": "Bhandup West LIIPL Ext. Counter BPC",
    "pincode": "400078",
    "district": "MUMBAI"
  },
  {
    "area": "Bharat Nagar S.O (Mumbai)",
    "pincode": "400007",
    "district": "MUMBAI"
  },
  {
    "area": "Bhawani Shankar Rd S.O",
    "pincode": "400028",
    "district": "MUMBAI"
  },
  {
    "area": "Bhawani Shankar S.O",
    "pincode": "400028",
    "district": "MUMBAI"
  },
  {
    "area": "BNPL SP Hub Agripada",
    "pincode": "400011",
    "district": "MUMBAI"
  },
  {
    "area": "BNPL SP Hub Mumbai",
    "pincode": "400099",
    "district": "MUMBAI"
  },
  {
    "area": "Byculla LPC",
    "pincode": "400011",
    "district": "MUMBAI"
  },
  {
    "area": "C G S Colony S.O",
    "pincode": "400037",
    "district": "MUMBAI"
  },
  {
    "area": "Central Building SO",
    "pincode": "400020",
    "district": "MUMBAI"
  },
  {
    "area": "CENTRAL STG DN MBI",
    "pincode": "400001",
    "district": "MUMBAI"
  },
  {
    "area": "Century Mill S.O",
    "pincode": "400030",
    "district": "MUMBAI"
  },
  {
    "area": "Chamarbaug S.O",
    "pincode": "400012",
    "district": "MUMBAI"
  },
  {
    "area": "Chaupati S.O",
    "pincode": "400004",
    "district": "MUMBAI"
  },
  {
    "area": "CHINCHBUNDER S.O",
    "pincode": "400009",
    "district": "MUMBAI"
  },
  {
    "area": "Chinchpokli S.O",
    "pincode": "400011",
    "district": "MUMBAI"
  },
  {
    "area": "Chunabhatti SO",
    "pincode": "400022",
    "district": "MUMBAI"
  },
  {
    "area": "Churchgate SO",
    "pincode": "400020",
    "district": "MUMBAI"
  },
  {
    "area": "Colaba Bazar SO",
    "pincode": "400005",
    "district": "MUMBAI"
  },
  {
    "area": "Colaba SO",
    "pincode": "400005",
    "district": "MUMBAI"
  },
  {
    "area": "Cotton Exchange S.O",
    "pincode": "400033",
    "district": "MUMBAI"
  },
  {
    "area": "Cumballa Hill S.O",
    "pincode": "400026",
    "district": "MUMBAI"
  },
  {
    "area": "Cumballa Sea Face S.O",
    "pincode": "400026",
    "district": "MUMBAI"
  },
  {
    "area": "D ZONE MAIL AGENCY",
    "pincode": "400001",
    "district": "MUMBAI"
  },
  {
    "area": "Dadar BPC",
    "pincode": "400014",
    "district": "MUMBAI"
  },
  {
    "area": "Dadar Colony S.O",
    "pincode": "400014",
    "district": "MUMBAI"
  },
  {
    "area": "Dadar H.O",
    "pincode": "400014",
    "district": "MUMBAI"
  },
  {
    "area": "Delisle Road S.O",
    "pincode": "400013",
    "district": "MUMBAI"
  },
  {
    "area": "Dharavi Road S.O",
    "pincode": "400017",
    "district": "MUMBAI"
  },
  {
    "area": "Dharavi S.O",
    "pincode": "400017",
    "district": "MUMBAI"
  },
  {
    "area": "DISTRICT BAG OFFICE AIRMAIL SORTING DN SION MUMBA",
    "pincode": "400099",
    "district": "MUMBAI"
  },
  {
    "area": "DISTRICT BAG OFFICE CENTRAL SORTING DN MUMBAI",
    "pincode": "400001",
    "district": "MUMBAI"
  },
  {
    "area": "DISTRICT BAG OFFICE MUMBAI",
    "pincode": "400099",
    "district": "MUMBAI"
  },
  {
    "area": "DISTRICT BAG OFFICE MUMBAI SORTING DN",
    "pincode": "400001",
    "district": "MUMBAI"
  },
  {
    "area": "Dockyard Road S.O",
    "pincode": "400010",
    "district": "MUMBAI"
  },
  {
    "area": "Dr Deshmukh Marg S.O",
    "pincode": "400026",
    "district": "MUMBAI"
  },
  {
    "area": "EPPC PAREL counter",
    "pincode": "400012",
    "district": "MUMBAI"
  },
  {
    "area": "Falkland Road S.O",
    "pincode": "400008",
    "district": "MUMBAI"
  },
  {
    "area": "Girgaon S.O",
    "pincode": "400004",
    "district": "MUMBAI"
  },
  {
    "area": "Gokhale Road S.O (Mumbai)",
    "pincode": "400028",
    "district": "MUMBAI"
  },
  {
    "area": "Gowalia Tank S.O",
    "pincode": "400026",
    "district": "MUMBAI"
  },
  {
    "area": "Grant Road S.O",
    "pincode": "400007",
    "district": "MUMBAI"
  },
  {
    "area": "Haffkin Institute S.O",
    "pincode": "400012",
    "district": "MUMBAI"
  },
  {
    "area": "Haines Road S.O",
    "pincode": "400011",
    "district": "MUMBAI"
  },
  {
    "area": "Haji Ali S.O",
    "pincode": "400034",
    "district": "MUMBAI"
  },
  {
    "area": "High Court Building SO Mumbai",
    "pincode": "400032",
    "district": "MUMBAI"
  },
  {
    "area": "Holiday Camp SO",
    "pincode": "400005",
    "district": "MUMBAI"
  },
  {
    "area": "HRO AIR MAIL STG DN",
    "pincode": "400099",
    "district": "MUMBAI"
  },
  {
    "area": "HRO CSDN MUMBAI",
    "pincode": "400001",
    "district": "MUMBAI"
  },
  {
    "area": "HRO MUMBAI STG DN",
    "pincode": "400001",
    "district": "MUMBAI"
  },
  {
    "area": "IIM Mumbai PO",
    "pincode": "400087",
    "district": "MUMBAI"
  },
  {
    "area": "INBOMA - MUMBAI AIR - L1R",
    "pincode": "400099",
    "district": "MUMBAI"
  },
  {
    "area": "INBOMB - MUMBAI EMS",
    "pincode": "400099",
    "district": "MUMBAI"
  },
  {
    "area": "Investment Division",
    "pincode": "400001",
    "district": "MUMBAI"
  },
  {
    "area": "J.B. Nagar S.O",
    "pincode": "400059",
    "district": "MUMBAI"
  },
  {
    "area": "J.J.Hospital S.O",
    "pincode": "400008",
    "district": "MUMBAI"
  },
  {
    "area": "Jacob Circle S.O",
    "pincode": "400011",
    "district": "MUMBAI"
  },
  {
    "area": "Jawhar Sub Division",
    "pincode": "401605",
    "district": "MUMBAI"
  },
  {
    "area": "Kalachowki S.O",
    "pincode": "400033",
    "district": "MUMBAI"
  },
  {
    "area": "Kalbadevi H.O",
    "pincode": "400002",
    "district": "MUMBAI"
  },
  {
    "area": "Kamathipura S.O",
    "pincode": "400008",
    "district": "MUMBAI"
  },
  {
    "area": "Kapad Bazar S.O",
    "pincode": "400016",
    "district": "MUMBAI"
  },
  {
    "area": "Kidwai Nagar S.O (Mumbai)",
    "pincode": "400031",
    "district": "MUMBAI"
  },
  {
    "area": "L B S N E collage S.O",
    "pincode": "400033",
    "district": "MUMBAI"
  },
  {
    "area": "Lal Baug S.O",
    "pincode": "400012",
    "district": "MUMBAI"
  },
  {
    "area": "M A Marg S.O",
    "pincode": "400008",
    "district": "MUMBAI"
  },
  {
    "area": "Madhavbaug S.O",
    "pincode": "400004",
    "district": "MUMBAI"
  },
  {
    "area": "Mahad Sub Division",
    "pincode": "402301",
    "district": "MUMBAI"
  },
  {
    "area": "Maharashtra Circle",
    "pincode": "400001",
    "district": "MUMBAI"
  },
  {
    "area": "Maharashtra Postal Account Office (DAP)",
    "pincode": "400001",
    "district": "MUMBAI"
  },
  {
    "area": "Mahim Bazar S.O",
    "pincode": "400016",
    "district": "MUMBAI"
  },
  {
    "area": "Mahim East S.O",
    "pincode": "400016",
    "district": "MUMBAI"
  },
  {
    "area": "Mahim H.O",
    "pincode": "400016",
    "district": "MUMBAI"
  },
  {
    "area": "Malabar Hill S.O",
    "pincode": "400006",
    "district": "MUMBAI"
  },
  {
    "area": "Mandvi S.O (Mumbai)",
    "pincode": "400003",
    "district": "MUMBAI"
  },
  {
    "area": "Mangaon Sub Division",
    "pincode": "402104",
    "district": "MUMBAI"
  },
  {
    "area": "Mantralaya SO Mumbai",
    "pincode": "400032",
    "district": "MUMBAI"
  },
  {
    "area": "Marine Lines S.O",
    "pincode": "400020",
    "district": "MUMBAI"
  },
  {
    "area": "Masjid S.O",
    "pincode": "400003",
    "district": "MUMBAI"
  },
  {
    "area": "Matunga SO",
    "pincode": "400019",
    "district": "MUMBAI"
  },
  {
    "area": "Mazgaon Dock S.O",
    "pincode": "400010",
    "district": "MUMBAI"
  },
  {
    "area": "Mazgaon Road S.O",
    "pincode": "400010",
    "district": "MUMBAI"
  },
  {
    "area": "Mazgaon S.O",
    "pincode": "400010",
    "district": "MUMBAI"
  },
  {
    "area": "MMS Mumbai",
    "pincode": "400018",
    "district": "MUMBAI"
  },
  {
    "area": "Mori Road S.O",
    "pincode": "400016",
    "district": "MUMBAI"
  },
  {
    "area": "MPT SO",
    "pincode": "400001",
    "district": "MUMBAI"
  },
  {
    "area": "Mumbai A Zone TMO",
    "pincode": "400099",
    "district": "MUMBAI"
  },
  {
    "area": "Mumbai Ap (Foreign) TMO",
    "pincode": "400099",
    "district": "MUMBAI"
  },
  {
    "area": "Mumbai Ap Inland TMO",
    "pincode": "400099",
    "district": "MUMBAI"
  },
  {
    "area": "Mumbai APSO Inland",
    "pincode": "400099",
    "district": "MUMBAI"
  },
  {
    "area": "Mumbai Central H.O",
    "pincode": "400008",
    "district": "MUMBAI"
  },
  {
    "area": "Mumbai Central Rs TMO",
    "pincode": "400008",
    "district": "MUMBAI"
  },
  {
    "area": "Mumbai City East Division",
    "pincode": "400014",
    "district": "MUMBAI"
  },
  {
    "area": "Mumbai City North East Division",
    "pincode": "400042",
    "district": "MUMBAI"
  },
  {
    "area": "Mumbai City South Division",
    "pincode": "400004",
    "district": "MUMBAI"
  },
  {
    "area": "Mumbai City West Division",
    "pincode": "400014",
    "district": "MUMBAI"
  },
  {
    "area": "Mumbai CPSO L1S",
    "pincode": "400001",
    "district": "MUMBAI"
  },
  {
    "area": "Mumbai CRC L1R",
    "pincode": "400001",
    "district": "MUMBAI"
  },
  {
    "area": "Mumbai Cst Rs TMO",
    "pincode": "400001",
    "district": "MUMBAI"
  },
  {
    "area": "MUMBAI FOREIGN POST OFFICE",
    "pincode": "400001",
    "district": "MUMBAI"
  },
  {
    "area": "MUMBAI FOREIGN POST OFFICE Booking Counter",
    "pincode": "400001",
    "district": "MUMBAI"
  },
  {
    "area": "Mumbai Foreign Post Office Operative",
    "pincode": "400001",
    "district": "MUMBAI"
  },
  {
    "area": "Mumbai GPO",
    "pincode": "400001",
    "district": "MUMBAI"
  },
  {
    "area": "Mumbai GPO BPC",
    "pincode": "400001",
    "district": "MUMBAI"
  },
  {
    "area": "Mumbai GPO Division",
    "pincode": "400001",
    "district": "MUMBAI"
  },
  {
    "area": "Mumbai NSH",
    "pincode": "400099",
    "district": "MUMBAI"
  },
  {
    "area": "MUMBAI NSH BOOKING COUNTER",
    "pincode": "400099",
    "district": "MUMBAI"
  },
  {
    "area": "Mumbai PC Sorting L1S",
    "pincode": "400001",
    "district": "MUMBAI"
  },
  {
    "area": "Mumbai PH",
    "pincode": "400012",
    "district": "MUMBAI"
  },
  {
    "area": "Mumbai PSO L1S",
    "pincode": "400001",
    "district": "MUMBAI"
  },
  {
    "area": "MUMBAI PSO COUNTER",
    "pincode": "400001",
    "district": "MUMBAI"
  },
  {
    "area": "Mumbai Region",
    "pincode": "400001",
    "district": "MUMBAI"
  },
  {
    "area": "Mumbai RMS Surface Inward L1U",
    "pincode": "400001",
    "district": "MUMBAI"
  },
  {
    "area": "Mumbai S Zone TMO",
    "pincode": "400022",
    "district": "MUMBAI"
  },
  {
    "area": "MUMBAI SORTING DN",
    "pincode": "400001",
    "district": "MUMBAI"
  },
  {
    "area": "N.S.Patkar Marg S.O",
    "pincode": "400007",
    "district": "MUMBAI"
  },
  {
    "area": "Naigaon S.O (Mumbai)",
    "pincode": "400014",
    "district": "MUMBAI"
  },
  {
    "area": "Nariman Point SO",
    "pincode": "400021",
    "district": "MUMBAI"
  },
  {
    "area": "Navi Mumbai Region",
    "pincode": "400001",
    "district": "MUMBAI"
  },
  {
    "area": "NDC CHEMBUR HO",
    "pincode": "400171",
    "district": "MUMBAI"
  },
  {
    "area": "NDC DADAR HO",
    "pincode": "400114",
    "district": "MUMBAI"
  },
  {
    "area": "New Prabhadevi Road S.O",
    "pincode": "400025",
    "district": "MUMBAI"
  },
  {
    "area": "New Yogakshema SO",
    "pincode": "400021",
    "district": "MUMBAI"
  },
  {
    "area": "Noor Baug S.O",
    "pincode": "400009",
    "district": "MUMBAI"
  },
  {
    "area": "Null Bazar S.O",
    "pincode": "400003",
    "district": "MUMBAI"
  },
  {
    "area": "Opera House S.O",
    "pincode": "400004",
    "district": "MUMBAI"
  },
  {
    "area": "Palghar Sub Division",
    "pincode": "401404",
    "district": "MUMBAI"
  },
  {
    "area": "Parel Naka S.O",
    "pincode": "400012",
    "district": "MUMBAI"
  },
  {
    "area": "Parel Rly Work Shop S.O",
    "pincode": "400012",
    "district": "MUMBAI"
  },
  {
    "area": "Parel S.O",
    "pincode": "400012",
    "district": "MUMBAI"
  },
  {
    "area": "Prabhadevi S.O",
    "pincode": "400025",
    "district": "MUMBAI"
  },
  {
    "area": "Princess Dock S.O",
    "pincode": "400009",
    "district": "MUMBAI"
  },
  {
    "area": "PSD Agripada",
    "pincode": "400011",
    "district": "MUMBAI"
  },
  {
    "area": "PSD Chinchbunder",
    "pincode": "400009",
    "district": "MUMBAI"
  },
  {
    "area": "PSD Mumbai",
    "pincode": "400001",
    "district": "MUMBAI"
  },
  {
    "area": "Rajbhavan S.O (Mumbai)",
    "pincode": "400035",
    "district": "MUMBAI"
  },
  {
    "area": "Ranade Road S.O",
    "pincode": "400028",
    "district": "MUMBAI"
  },
  {
    "area": "Raoli Camp SO",
    "pincode": "400022",
    "district": "MUMBAI"
  },
  {
    "area": "Reay Road S.O",
    "pincode": "400033",
    "district": "MUMBAI"
  },
  {
    "area": "RLO Mumbai",
    "pincode": "400001",
    "district": "MUMBAI"
  },
  {
    "area": "S V Marg S.O",
    "pincode": "400007",
    "district": "MUMBAI"
  },
  {
    "area": "S V S Marg S.O",
    "pincode": "400028",
    "district": "MUMBAI"
  },
  {
    "area": "S. C. Court S.O",
    "pincode": "400002",
    "district": "MUMBAI"
  },
  {
    "area": "Secretariate SO",
    "pincode": "400032",
    "district": "MUMBAI"
  },
  {
    "area": "Sewri S.O",
    "pincode": "400015",
    "district": "MUMBAI"
  },
  {
    "area": "Shivaji Park S.O (Mumbai)",
    "pincode": "400028",
    "district": "MUMBAI"
  },
  {
    "area": "Sion SO",
    "pincode": "400022",
    "district": "MUMBAI"
  },
  {
    "area": "Stock Exchange SO",
    "pincode": "400001",
    "district": "MUMBAI"
  },
  {
    "area": "Tajmahal SO",
    "pincode": "400001",
    "district": "MUMBAI"
  },
  {
    "area": "Tank Road S.O",
    "pincode": "400033",
    "district": "MUMBAI"
  },
  {
    "area": "Tardeo S.O",
    "pincode": "400007",
    "district": "MUMBAI"
  },
  {
    "area": "Thakurdwar S.O",
    "pincode": "400002",
    "district": "MUMBAI"
  },
  {
    "area": "Town Hall SO Mumbai",
    "pincode": "400001",
    "district": "MUMBAI"
  },
  {
    "area": "Transit Camp SO",
    "pincode": "400022",
    "district": "MUMBAI"
  },
  {
    "area": "Tulsiwadi S.O",
    "pincode": "400034",
    "district": "MUMBAI"
  },
  {
    "area": "V J B Udyan S.O",
    "pincode": "400027",
    "district": "MUMBAI"
  },
  {
    "area": "V K Bhavan S.O",
    "pincode": "400010",
    "district": "MUMBAI"
  },
  {
    "area": "Vashi Sub Division",
    "pincode": "400703",
    "district": "MUMBAI"
  },
  {
    "area": "Virar Sub Division",
    "pincode": "401303",
    "district": "MUMBAI"
  },
  {
    "area": "VWTC SO",
    "pincode": "400005",
    "district": "MUMBAI"
  },
  {
    "area": "Wadala Rs S.O",
    "pincode": "400031",
    "district": "MUMBAI"
  },
  {
    "area": "Wadala S.O",
    "pincode": "400031",
    "district": "MUMBAI"
  },
  {
    "area": "Wadala Truck Terminal S.O",
    "pincode": "400037",
    "district": "MUMBAI"
  },
  {
    "area": "Worli Colony S.O",
    "pincode": "400030",
    "district": "MUMBAI"
  },
  {
    "area": "Worli Naka S.O",
    "pincode": "400018",
    "district": "MUMBAI"
  },
  {
    "area": "Worli Police Camp S.O",
    "pincode": "400030",
    "district": "MUMBAI"
  },
  {
    "area": "Worli S.O",
    "pincode": "400018",
    "district": "MUMBAI"
  },
  {
    "area": "Worli Sea Face S.O",
    "pincode": "400030",
    "district": "MUMBAI"
  }
]
