[
  {
    "area": "Achloli ",
    "pincode": "402305",
    "district": "RAIGAD"
  },
  {
    "area": "Adai ",
    "pincode": "410206",
    "district": "RAIGAD"
  },
  {
    "area": "Adavale Budruk ",
    "pincode": "402303",
    "district": "RAIGAD"
  },
  {
    "area": "Adgaon ",
    "pincode": "402403",
    "district": "RAIGAD"
  },
  {
    "area": "Adhi ",
    "pincode": "402103",
    "district": "RAIGAD"
  },
  {
    "area": "Agardanda ",
    "pincode": "402401",
    "district": "RAIGAD"
  },
  {
    "area": "Agrav ",
    "pincode": "402203",
    "district": "RAIGAD"
  },
  {
    "area": "Ainghar ",
    "pincode": "402126",
    "district": "RAIGAD"
  },
  {
    "area": "Ajivali ",
    "pincode": "410221",
    "district": "RAIGAD"
  },
  {
    "area": "Akshi ",
    "pincode": "402204",
    "district": "RAIGAD"
  },
  {
    "area": "Alibag HO",
    "pincode": "402201",
    "district": "RAIGAD"
  },
  {
    "area": "Ambavade ",
    "pincode": "402307",
    "district": "RAIGAD"
  },
  {
    "area": "Ambeghar ",
    "pincode": "402107",
    "district": "RAIGAD"
  },
  {
    "area": "Ambet SO",
    "pincode": "402101",
    "district": "RAIGAD"
  },
  {
    "area": "Ambivali ",
    "pincode": "410201",
    "district": "RAIGAD"
  },
  {
    "area": "Ambivali ",
    "pincode": "402301",
    "district": "RAIGAD"
  },
  {
    "area": "Amtem ",
    "pincode": "402106",
    "district": "RAIGAD"
  },
  {
    "area": "Apta ",
    "pincode": "410207",
    "district": "RAIGAD"
  },
  {
    "area": "Aravi ",
    "pincode": "402113",
    "district": "RAIGAD"
  },
  {
    "area": "Ashtami ",
    "pincode": "402109",
    "district": "RAIGAD"
  },
  {
    "area": "Atone ",
    "pincode": "410205",
    "district": "RAIGAD"
  },
  {
    "area": "Awas ",
    "pincode": "402208",
    "district": "RAIGAD"
  },
  {
    "area": "Awre ",
    "pincode": "410206",
    "district": "RAIGAD"
  },
  {
    "area": "Bagmandla SO",
    "pincode": "402114",
    "district": "RAIGAD"
  },
  {
    "area": "Balavali ",
    "pincode": "402107",
    "district": "RAIGAD"
  },
  {
    "area": "Baliware ",
    "pincode": "410101",
    "district": "RAIGAD"
  },
  {
    "area": "Bamangaon ",
    "pincode": "402204",
    "district": "RAIGAD"
  },
  {
    "area": "Bamnoli ",
    "pincode": "402104",
    "district": "RAIGAD"
  },
  {
    "area": "Baple ",
    "pincode": "402203",
    "district": "RAIGAD"
  },
  {
    "area": "Barapada ",
    "pincode": "410221",
    "district": "RAIGAD"
  },
  {
    "area": "Barasgaon ",
    "pincode": "402306",
    "district": "RAIGAD"
  },
  {
    "area": "Beed Budruk ",
    "pincode": "410201",
    "district": "RAIGAD"
  },
  {
    "area": "Bense ",
    "pincode": "402106",
    "district": "RAIGAD"
  },
  {
    "area": "Bhairav ",
    "pincode": "410205",
    "district": "RAIGAD"
  },
  {
    "area": "Bhale ",
    "pincode": "402120",
    "district": "RAIGAD"
  },
  {
    "area": "Bhalgaon ",
    "pincode": "402109",
    "district": "RAIGAD"
  },
  {
    "area": "Bhanang ",
    "pincode": "402111",
    "district": "RAIGAD"
  },
  {
    "area": "Bharadkhol ",
    "pincode": "402404",
    "district": "RAIGAD"
  },
  {
    "area": "Bharje ",
    "pincode": "410205",
    "district": "RAIGAD"
  },
  {
    "area": "Bhave ",
    "pincode": "402302",
    "district": "RAIGAD"
  },
  {
    "area": "Bhira SO RaigarhMH",
    "pincode": "402308",
    "district": "RAIGAD"
  },
  {
    "area": "Bhivpuri Camp ",
    "pincode": "410201",
    "district": "RAIGAD"
  },
  {
    "area": "Bhoste ",
    "pincode": "402110",
    "district": "RAIGAD"
  },
  {
    "area": "Birwadi SO",
    "pincode": "402302",
    "district": "RAIGAD"
  },
  {
    "area": "Bokadvira ",
    "pincode": "400702",
    "district": "RAIGAD"
  },
  {
    "area": "Borgaon ",
    "pincode": "410101",
    "district": "RAIGAD"
  },
  {
    "area": "Borghar ",
    "pincode": "402303",
    "district": "RAIGAD"
  },
  {
    "area": "Borghar Haveli ",
    "pincode": "402111",
    "district": "RAIGAD"
  },
  {
    "area": "Borlimandla ",
    "pincode": "402202",
    "district": "RAIGAD"
  },
  {
    "area": "Borlipanchatan SO",
    "pincode": "402403",
    "district": "RAIGAD"
  },
  {
    "area": "Borwadi ",
    "pincode": "402120",
    "district": "RAIGAD"
  },
  {
    "area": "Chambhargani ",
    "pincode": "402303",
    "district": "RAIGAD"
  },
  {
    "area": "Chandgaon ",
    "pincode": "402109",
    "district": "RAIGAD"
  },
  {
    "area": "Chandhave Budruk ",
    "pincode": "402301",
    "district": "RAIGAD"
  },
  {
    "area": "Chandore ",
    "pincode": "402122",
    "district": "RAIGAD"
  },
  {
    "area": "Chanera ",
    "pincode": "402109",
    "district": "RAIGAD"
  },
  {
    "area": "Chanje ",
    "pincode": "400702",
    "district": "RAIGAD"
  },
  {
    "area": "Chaul SO",
    "pincode": "402203",
    "district": "RAIGAD"
  },
  {
    "area": "Chawk ",
    "pincode": "410206",
    "district": "RAIGAD"
  },
  {
    "area": "Chikhale ",
    "pincode": "410221",
    "district": "RAIGAD"
  },
  {
    "area": "Chikhlap ",
    "pincode": "402105",
    "district": "RAIGAD"
  },
  {
    "area": "Chikhlap ",
    "pincode": "402113",
    "district": "RAIGAD"
  },
  {
    "area": "Chimbhave SO",
    "pincode": "415213",
    "district": "RAIGAD"
  },
  {
    "area": "Chinchoti ",
    "pincode": "402203",
    "district": "RAIGAD"
  },
  {
    "area": "Chinchwali ",
    "pincode": "410201",
    "district": "RAIGAD"
  },
  {
    "area": "Chinchwali Tarfe Atone ",
    "pincode": "402304",
    "district": "RAIGAD"
  },
  {
    "area": "Chirner ",
    "pincode": "410206",
    "district": "RAIGAD"
  },
  {
    "area": "Chive ",
    "pincode": "410205",
    "district": "RAIGAD"
  },
  {
    "area": "Chochinde ",
    "pincode": "402301",
    "district": "RAIGAD"
  },
  {
    "area": "Chondhi ",
    "pincode": "402208",
    "district": "RAIGAD"
  },
  {
    "area": "Chordhe ",
    "pincode": "402109",
    "district": "RAIGAD"
  },
  {
    "area": "Dabhol ",
    "pincode": "402102",
    "district": "RAIGAD"
  },
  {
    "area": "Dadar ",
    "pincode": "402107",
    "district": "RAIGAD"
  },
  {
    "area": "Dahigaon ",
    "pincode": "410205",
    "district": "RAIGAD"
  },
  {
    "area": "Dahivad ",
    "pincode": "402302",
    "district": "RAIGAD"
  },
  {
    "area": "Dahivali ",
    "pincode": "402117",
    "district": "RAIGAD"
  },
  {
    "area": "Dahivali T.Need ",
    "pincode": "410201",
    "district": "RAIGAD"
  },
  {
    "area": "Dahivali T.Varedi ",
    "pincode": "410101",
    "district": "RAIGAD"
  },
  {
    "area": "Dandguri ",
    "pincode": "402404",
    "district": "RAIGAD"
  },
  {
    "area": "Dapoli ",
    "pincode": "402302",
    "district": "RAIGAD"
  },
  {
    "area": "Dasgaon SO",
    "pincode": "402102",
    "district": "RAIGAD"
  },
  {
    "area": "Degaon ",
    "pincode": "402117",
    "district": "RAIGAD"
  },
  {
    "area": "Deopur ",
    "pincode": "402303",
    "district": "RAIGAD"
  },
  {
    "area": "Devali ",
    "pincode": "402103",
    "district": "RAIGAD"
  },
  {
    "area": "Devichapada ",
    "pincode": "410208",
    "district": "RAIGAD"
  },
  {
    "area": "Devkanhe ",
    "pincode": "402304",
    "district": "RAIGAD"
  },
  {
    "area": "Devla ",
    "pincode": "402303",
    "district": "RAIGAD"
  },
  {
    "area": "Dhamandevi ",
    "pincode": "402303",
    "district": "RAIGAD"
  },
  {
    "area": "Dhamane ",
    "pincode": "402302",
    "district": "RAIGAD"
  },
  {
    "area": "Dhamansai ",
    "pincode": "402109",
    "district": "RAIGAD"
  },
  {
    "area": "Dasgaon SO",
    "pincode": "402102",
    "district": "RAIGAD"
  },
  {
    "area": "Degaon ",
    "pincode": "402117",
    "district": "RAIGAD"
  },
  {
    "area": "Deopur ",
    "pincode": "402303",
    "district": "RAIGAD"
  },
  {
    "area": "Devali ",
    "pincode": "402103",
    "district": "RAIGAD"
  },
  {
    "area": "Devichapada ",
    "pincode": "410208",
    "district": "RAIGAD"
  },
  {
    "area": "Devkanhe ",
    "pincode": "402304",
    "district": "RAIGAD"
  },
  {
    "area": "Devla ",
    "pincode": "402303",
    "district": "RAIGAD"
  },
  {
    "area": "Dhamandevi ",
    "pincode": "402303",
    "district": "RAIGAD"
  },
  {
    "area": "Dhamane ",
    "pincode": "402302",
    "district": "RAIGAD"
  },
  {
    "area": "Dhamansai ",
    "pincode": "402109",
    "district": "RAIGAD"
  },
  {
    "area": "Dharavali ",
    "pincode": "402301",
    "district": "RAIGAD"
  },
  {
    "area": "Dhokawade ",
    "pincode": "402208",
    "district": "RAIGAD"
  },
  {
    "area": "Dighi SO",
    "pincode": "402402",
    "district": "RAIGAD"
  },
  {
    "area": "Dighode ",
    "pincode": "410206",
    "district": "RAIGAD"
  },
  {
    "area": "Diveagar SO",
    "pincode": "402404",
    "district": "RAIGAD"
  },
  {
    "area": "Divil ",
    "pincode": "402303",
    "district": "RAIGAD"
  },
  {
    "area": "Dolvi ",
    "pincode": "402107",
    "district": "RAIGAD"
  },
  {
    "area": "Donwat ",
    "pincode": "410203",
    "district": "RAIGAD"
  },
  {
    "area": "Elephanta Caves Po ",
    "pincode": "400021",
    "district": "RAIGAD"
  },
  {
    "area": "Gadab ",
    "pincode": "402107",
    "district": "RAIGAD"
  },
  {
    "area": "Gagode Budruk ",
    "pincode": "402107",
    "district": "RAIGAD"
  },
  {
    "area": "Galsure ",
    "pincode": "402110",
    "district": "RAIGAD"
  },
  {
    "area": "Gaulwadi ",
    "pincode": "410201",
    "district": "RAIGAD"
  },
  {
    "area": "Gaurkamath ",
    "pincode": "410201",
    "district": "RAIGAD"
  },
  {
    "area": "Ghosale ",
    "pincode": "402109",
    "district": "RAIGAD"
  },
  {
    "area": "Ghotawade ",
    "pincode": "410205",
    "district": "RAIGAD"
  },
  {
    "area": "Golegani ",
    "pincode": "402303",
    "district": "RAIGAD"
  },
  {
    "area": "Gondale ",
    "pincode": "402301",
    "district": "RAIGAD"
  },
  {
    "area": "Gondghar ",
    "pincode": "402105",
    "district": "RAIGAD"
  },
  {
    "area": "Goregaon SO RaigarhMH",
    "pincode": "402103",
    "district": "RAIGAD"
  },
  {
    "area": "Govele ",
    "pincode": "402122",
    "district": "RAIGAD"
  },
  {
    "area": "Gulsunde ",
    "pincode": "410207",
    "district": "RAIGAD"
  },
  {
    "area": "Gundge ",
    "pincode": "410201",
    "district": "RAIGAD"
  },
  {
    "area": "Hamrapur ",
    "pincode": "402107",
    "district": "RAIGAD"
  },
  {
    "area": "Hareshwar ",
    "pincode": "402110",
    "district": "RAIGAD"
  },
  {
    "area": "Harkol ",
    "pincode": "402103",
    "district": "RAIGAD"
  },
  {
    "area": "Hashiware ",
    "pincode": "402209",
    "district": "RAIGAD"
  },
  {
    "area": "Hatond ",
    "pincode": "410205",
    "district": "RAIGAD"
  },
  {
    "area": "Hodgaon ",
    "pincode": "402104",
    "district": "RAIGAD"
  },
  {
    "area": "Humgaon ",
    "pincode": "410201",
    "district": "RAIGAD"
  },
  {
    "area": "Jagdish Nagar S.O",
    "pincode": "410216",
    "district": "RAIGAD"
  },
  {
    "area": "Jambhulpada ",
    "pincode": "410205",
    "district": "RAIGAD"
  },
  {
    "area": "Jambrung ",
    "pincode": "410201",
    "district": "RAIGAD"
  },
  {
    "area": "Jamgaon ",
    "pincode": "402308",
    "district": "RAIGAD"
  },
  {
    "area": "Janjira Murud SO",
    "pincode": "402401",
    "district": "RAIGAD"
  },
  {
    "area": "Jasai ",
    "pincode": "410206",
    "district": "RAIGAD"
  },
  {
    "area": "Jasawali ",
    "pincode": "402110",
    "district": "RAIGAD"
  },
  {
    "area": "Jaskhar ",
    "pincode": "400707",
    "district": "RAIGAD"
  },
  {
    "area": "Jci Kamothe ",
    "pincode": "410206",
    "district": "RAIGAD"
  },
  {
    "area": "Jite ",
    "pincode": "402302",
    "district": "RAIGAD"
  },
  {
    "area": "Jite ",
    "pincode": "402120",
    "district": "RAIGAD"
  },
  {
    "area": "Jite ",
    "pincode": "402107",
    "district": "RAIGAD"
  },
  {
    "area": "Jnpt S.O",
    "pincode": "400707",
    "district": "RAIGAD"
  },
  {
    "area": "Johe ",
    "pincode": "402107",
    "district": "RAIGAD"
  },
  {
    "area": "Jui ",
    "pincode": "410206",
    "district": "RAIGAD"
  },
  {
    "area": "Jui Budruk ",
    "pincode": "402115",
    "district": "RAIGAD"
  },
  {
    "area": "Kadav ",
    "pincode": "410201",
    "district": "RAIGAD"
  },
  {
    "area": "Kalamb ",
    "pincode": "410101",
    "district": "RAIGAD"
  },
  {
    "area": "Kalamboli Node S.O",
    "pincode": "410218",
    "district": "RAIGAD"
  },
  {
    "area": "Kalavali ",
    "pincode": "402301",
    "district": "RAIGAD"
  },
  {
    "area": "Kamarle ",
    "pincode": "402209",
    "district": "RAIGAD"
  },
  {
    "area": "Kamarli ",
    "pincode": "402107",
    "district": "RAIGAD"
  },
  {
    "area": "Kamble Tarfe Birwadi ",
    "pincode": "402309",
    "district": "RAIGAD"
  },
  {
    "area": "Kamble Tarfe Mahad ",
    "pincode": "402309",
    "district": "RAIGAD"
  },
  {
    "area": "KAMOTHE S.O",
    "pincode": "410209",
    "district": "RAIGAD"
  },
  {
    "area": "Kandale ",
    "pincode": "402107",
    "district": "RAIGAD"
  },
  {
    "area": "Kapade Budruk ",
    "pincode": "402303",
    "district": "RAIGAD"
  },
  {
    "area": "Karanja ",
    "pincode": "400702",
    "district": "RAIGAD"
  },
  {
    "area": "Karanjadi ",
    "pincode": "402301",
    "district": "RAIGAD"
  },
  {
    "area": "Karjat S.O (Raigarh(MH))",
    "pincode": "410201",
    "district": "RAIGAD"
  },
  {
    "area": "Kashele ",
    "pincode": "410201",
    "district": "RAIGAD"
  },
  {
    "area": "Kashid ",
    "pincode": "402401",
    "district": "RAIGAD"
  },
  {
    "area": "Kasu ",
    "pincode": "402107",
    "district": "RAIGAD"
  },
  {
    "area": "Kavale ",
    "pincode": "402307",
    "district": "RAIGAD"
  },
  {
    "area": "Kavil Vahal ",
    "pincode": "402104",
    "district": "RAIGAD"
  },
  {
    "area": "Kegaon ",
    "pincode": "400702",
    "district": "RAIGAD"
  },
  {
    "area": "Kelevane ",
    "pincode": "410206",
    "district": "RAIGAD"
  },
  {
    "area": "Kelte ",
    "pincode": "402105",
    "district": "RAIGAD"
  },
  {
    "area": "Kemburli ",
    "pincode": "402301",
    "district": "RAIGAD"
  },
  {
    "area": "Khaire Khurd ",
    "pincode": "402109",
    "district": "RAIGAD"
  },
  {
    "area": "Khalapur S.O",
    "pincode": "410202",
    "district": "RAIGAD"
  },
  {
    "area": "Khamb ",
    "pincode": "402304",
    "district": "RAIGAD"
  },
  {
    "area": "Khambewadi ",
    "pincode": "410203",
    "district": "RAIGAD"
  },
  {
    "area": "Khamgaon ",
    "pincode": "402105",
    "district": "RAIGAD"
  },
  {
    "area": "Khanda Colony S.O",
    "pincode": "410206",
    "district": "RAIGAD"
  },
  {
    "area": "Khandale ",
    "pincode": "402209",
    "district": "RAIGAD"
  },
  {
    "area": "Khandas ",
    "pincode": "410201",
    "district": "RAIGAD"
  },
  {
    "area": "Khandpoli ",
    "pincode": "410205",
    "district": "RAIGAD"
  },
  {
    "area": "Kharavali ",
    "pincode": "402104",
    "district": "RAIGAD"
  },
  {
    "area": "Khardi ",
    "pincode": "402305",
    "district": "RAIGAD"
  },
  {
    "area": "Khargaon ",
    "pincode": "402109",
    "district": "RAIGAD"
  },
  {
    "area": "Kharghar S.O",
    "pincode": "410210",
    "district": "RAIGAD"
  },
  {
    "area": "Kharpale ",
    "pincode": "402107",
    "district": "RAIGAD"
  },
  {
    "area": "Kharsai ",
    "pincode": "402105",
    "district": "RAIGAD"
  },
  {
    "area": "Khavali ",
    "pincode": "410205",
    "district": "RAIGAD"
  },
  {
    "area": "Khopoli Power House S.O",
    "pincode": "410204",
    "district": "RAIGAD"
  },
  {
    "area": "Khopoli S.O",
    "pincode": "410203",
    "district": "RAIGAD"
  },
  {
    "area": "Kihim ",
    "pincode": "402208",
    "district": "RAIGAD"
  },
  {
    "area": "Kinjaloli Budruk ",
    "pincode": "402301",
    "district": "RAIGAD"
  },
  {
    "area": "Kirwali ",
    "pincode": "410201",
    "district": "RAIGAD"
  },
  {
    "area": "Kokban ",
    "pincode": "402109",
    "district": "RAIGAD"
  },
  {
    "area": "Kolad SO",
    "pincode": "402304",
    "district": "RAIGAD"
  },
  {
    "area": "Kolmandla ",
    "pincode": "402114",
    "district": "RAIGAD"
  },
  {
    "area": "Kolose ",
    "pincode": "402305",
    "district": "RAIGAD"
  },
  {
    "area": "Kolwat ",
    "pincode": "402105",
    "district": "RAIGAD"
  },
  {
    "area": "Kondhavi ",
    "pincode": "402303",
    "district": "RAIGAD"
  },
  {
    "area": "Kondivade ",
    "pincode": "410201",
    "district": "RAIGAD"
  },
  {
    "area": "Konzar ",
    "pincode": "402305",
    "district": "RAIGAD"
  },
  {
    "area": "Koproli ",
    "pincode": "410206",
    "district": "RAIGAD"
  },
  {
    "area": "Koproli ",
    "pincode": "402107",
    "district": "RAIGAD"
  },
  {
    "area": "Korlai ",
    "pincode": "402202",
    "district": "RAIGAD"
  },
  {
    "area": "Koshane ",
    "pincode": "410201",
    "district": "RAIGAD"
  },
  {
    "area": "Koste Khurd ",
    "pincode": "402120",
    "district": "RAIGAD"
  },
  {
    "area": "Kotheri ",
    "pincode": "402301",
    "district": "RAIGAD"
  },
  {
    "area": "Kotwal Budruk ",
    "pincode": "402303",
    "district": "RAIGAD"
  },
  {
    "area": "Koynavale ",
    "pincode": "410208",
    "district": "RAIGAD"
  },
  {
    "area": "Kudgaon ",
    "pincode": "402402",
    "district": "RAIGAD"
  },
  {
    "area": "Kudli ",
    "pincode": "402308",
    "district": "RAIGAD"
  },
  {
    "area": "Kumbheshivthar ",
    "pincode": "402306",
    "district": "RAIGAD"
  },
  {
    "area": "Kundevahal ",
    "pincode": "410206",
    "district": "RAIGAD"
  },
  {
    "area": "Kurdus ",
    "pincode": "402108",
    "district": "RAIGAD"
  },
  {
    "area": "Kurle ",
    "pincode": "402301",
    "district": "RAIGAD"
  },
  {
    "area": "Kurul ",
    "pincode": "402209",
    "district": "RAIGAD"
  },
  {
    "area": "Kurul RCF Colony SO",
    "pincode": "402209",
    "district": "RAIGAD"
  },
  {
    "area": "Kusgaon ",
    "pincode": "402309",
    "district": "RAIGAD"
  },
  {
    "area": "Kusumbale ",
    "pincode": "402108",
    "district": "RAIGAD"
  },
  {
    "area": "Lipniwave ",
    "pincode": "402101",
    "district": "RAIGAD"
  },
  {
    "area": "Lodhivali ",
    "pincode": "410206",
    "district": "RAIGAD"
  },
  {
    "area": "Lohare ",
    "pincode": "402303",
    "district": "RAIGAD"
  },
  {
    "area": "Lonere ",
    "pincode": "402103",
    "district": "RAIGAD"
  },
  {
    "area": "Lonshi ",
    "pincode": "402104",
    "district": "RAIGAD"
  },
  {
    "area": "Mahad SO",
    "pincode": "402301",
    "district": "RAIGAD"
  },
  {
    "area": "Mahagaon ",
    "pincode": "410205",
    "district": "RAIGAD"
  },
  {
    "area": "Mahagaon ",
    "pincode": "402112",
    "district": "RAIGAD"
  },
  {
    "area": "Mahal Mirya Dongar ",
    "pincode": "410205",
    "district": "RAIGAD"
  },
  {
    "area": "Mahargul ",
    "pincode": "402303",
    "district": "RAIGAD"
  },
  {
    "area": "Majgaon ",
    "pincode": "402401",
    "district": "RAIGAD"
  },
  {
    "area": "Majgaon Tamhane ",
    "pincode": "402105",
    "district": "RAIGAD"
  },
  {
    "area": "Malyan ",
    "pincode": "402203",
    "district": "RAIGAD"
  },
  {
    "area": "Mandad ",
    "pincode": "402111",
    "district": "RAIGAD"
  },
  {
    "area": "Mandavane ",
    "pincode": "410201",
    "district": "RAIGAD"
  },
  {
    "area": "Mandle ",
    "pincode": "402305",
    "district": "RAIGAD"
  },
  {
    "area": "Mangaon Budruk ",
    "pincode": "410205",
    "district": "RAIGAD"
  },
  {
    "area": "Mangaon SO RaigarhMH",
    "pincode": "402104",
    "district": "RAIGAD"
  },
  {
    "area": "Mangaon T.Varedi ",
    "pincode": "410101",
    "district": "RAIGAD"
  },
  {
    "area": "Mangarul ",
    "pincode": "402103",
    "district": "RAIGAD"
  },
  {
    "area": "Mangrun ",
    "pincode": "402302",
    "district": "RAIGAD"
  },
  {
    "area": "Manivali ",
    "pincode": "410101",
    "district": "RAIGAD"
  },
  {
    "area": "Manjaravane ",
    "pincode": "402122",
    "district": "RAIGAD"
  },
  {
    "area": "Mapgaon ",
    "pincode": "402208",
    "district": "RAIGAD"
  },
  {
    "area": "Matheran S.O",
    "pincode": "410102",
    "district": "RAIGAD"
  },
  {
    "area": "Mazeri ",
    "pincode": "402306",
    "district": "RAIGAD"
  },
  {
    "area": "Mazgaon ",
    "pincode": "410220",
    "district": "RAIGAD"
  },
  {
    "area": "Medha ",
    "pincode": "402109",
    "district": "RAIGAD"
  },
  {
    "area": "Mendadi ",
    "pincode": "402105",
    "district": "RAIGAD"
  },
  {
    "area": "Mhasla SO",
    "pincode": "402105",
    "district": "RAIGAD"
  },
  {
    "area": "Midc Mahad SO",
    "pincode": "402309",
    "district": "RAIGAD"
  },
  {
    "area": "Mograj ",
    "pincode": "410201",
    "district": "RAIGAD"
  },
  {
    "area": "Mohopada S.O",
    "pincode": "410222",
    "district": "RAIGAD"
  },
  {
    "area": "Mohot ",
    "pincode": "402302",
    "district": "RAIGAD"
  },
  {
    "area": "Mora ",
    "pincode": "400704",
    "district": "RAIGAD"
  },
  {
    "area": "Morba SO",
    "pincode": "402117",
    "district": "RAIGAD"
  },
  {
    "area": "Morbe ",
    "pincode": "410206",
    "district": "RAIGAD"
  },
  {
    "area": "Mumurshi ",
    "pincode": "402301",
    "district": "RAIGAD"
  },
  {
    "area": "Muthavali Tarfe Tala ",
    "pincode": "402112",
    "district": "RAIGAD"
  },
  {
    "area": "N.S.Karanja S.O",
    "pincode": "400704",
    "district": "RAIGAD"
  },
  {
    "area": "Nadsur ",
    "pincode": "410205",
    "district": "RAIGAD"
  },
  {
    "area": "Nagaon ",
    "pincode": "402103",
    "district": "RAIGAD"
  },
  {
    "area": "Nagaon ",
    "pincode": "402301",
    "district": "RAIGAD"
  },
  {
    "area": "Nagaon SO",
    "pincode": "402204",
    "district": "RAIGAD"
  },
  {
    "area": "Nagloli ",
    "pincode": "402404",
    "district": "RAIGAD"
  },
  {
    "area": "Nagothane SO",
    "pincode": "402106",
    "district": "RAIGAD"
  },
  {
    "area": "Nandgaon ",
    "pincode": "410201",
    "district": "RAIGAD"
  },
  {
    "area": "Nandgaon ",
    "pincode": "402401",
    "district": "RAIGAD"
  },
  {
    "area": "Nandgaon ",
    "pincode": "410205",
    "district": "RAIGAD"
  },
  {
    "area": "Nandvi ",
    "pincode": "402103",
    "district": "RAIGAD"
  },
  {
    "area": "Narangi ",
    "pincode": "402209",
    "district": "RAIGAD"
  },
  {
    "area": "Narvan ",
    "pincode": "402115",
    "district": "RAIGAD"
  },
  {
    "area": "Nasarapur ",
    "pincode": "410201",
    "district": "RAIGAD"
  },
  {
    "area": "Nate SO",
    "pincode": "402305",
    "district": "RAIGAD"
  },
  {
    "area": "Natondi ",
    "pincode": "402301",
    "district": "RAIGAD"
  },
  {
    "area": "Navde ",
    "pincode": "410208",
    "district": "RAIGAD"
  },
  {
    "area": "Navedar Navgaon ",
    "pincode": "402208",
    "district": "RAIGAD"
  },
  {
    "area": "Navghar ",
    "pincode": "400707",
    "district": "RAIGAD"
  },
  {
    "area": "Navghar ",
    "pincode": "410205",
    "district": "RAIGAD"
  },
  {
    "area": "Navi Mumbai Division",
    "pincode": "410206",
    "district": "RAIGAD"
  },
  {
    "area": "Navipeth Mahad SO",
    "pincode": "402301",
    "district": "RAIGAD"
  },
  {
    "area": "Neral S.O",
    "pincode": "410101",
    "district": "RAIGAD"
  },
  {
    "area": "Nere ",
    "pincode": "410206",
    "district": "RAIGAD"
  },
  {
    "area": "Nhava ",
    "pincode": "410206",
    "district": "RAIGAD"
  },
  {
    "area": "Nhave ",
    "pincode": "402109",
    "district": "RAIGAD"
  },
  {
    "area": "Nigade ",
    "pincode": "402302",
    "district": "RAIGAD"
  },
  {
    "area": "Nizampur SO RaigarhMH",
    "pincode": "402120",
    "district": "RAIGAD"
  },
  {
    "area": "Ombali ",
    "pincode": "402303",
    "district": "RAIGAD"
  },
  {
    "area": "Ongc Complex,panvel S.O",
    "pincode": "410221",
    "district": "RAIGAD"
  },
  {
    "area": "ONGC dronagiri ",
    "pincode": "400702",
    "district": "RAIGAD"
  },
  {
    "area": "Pabal ",
    "pincode": "402107",
    "district": "RAIGAD"
  },
  {
    "area": "Pabhare ",
    "pincode": "402105",
    "district": "RAIGAD"
  },
  {
    "area": "Pachad ",
    "pincode": "402305",
    "district": "RAIGAD"
  },
  {
    "area": "Pachhapur ",
    "pincode": "410205",
    "district": "RAIGAD"
  },
  {
    "area": "Padghe ",
    "pincode": "410208",
    "district": "RAIGAD"
  },
  {
    "area": "Padvi ",
    "pincode": "402306",
    "district": "RAIGAD"
  },
  {
    "area": "Paithan ",
    "pincode": "402303",
    "district": "RAIGAD"
  },
  {
    "area": "Palas ",
    "pincode": "402106",
    "district": "RAIGAD"
  },
  {
    "area": "Palasdari ",
    "pincode": "410201",
    "district": "RAIGAD"
  },
  {
    "area": "Palasgaon Khurd ",
    "pincode": "402104",
    "district": "RAIGAD"
  },
  {
    "area": "Palaspe ",
    "pincode": "410221",
    "district": "RAIGAD"
  },
  {
    "area": "Palchil ",
    "pincode": "402303",
    "district": "RAIGAD"
  },
  {
    "area": "Pali SO RaigarhMH",
    "pincode": "410205",
    "district": "RAIGAD"
  },
  {
    "area": "Pangari ",
    "pincode": "402307",
    "district": "RAIGAD"
  },
  {
    "area": "Pangloli ",
    "pincode": "402101",
    "district": "RAIGAD"
  },
  {
    "area": "Panhalghar ",
    "pincode": "402103",
    "district": "RAIGAD"
  },
  {
    "area": "Panvel BPC",
    "pincode": "410206",
    "district": "RAIGAD"
  },
  {
    "area": "Panvel City S.O",
    "pincode": "410206",
    "district": "RAIGAD"
  },
  {
    "area": "Panvel H.O",
    "pincode": "410206",
    "district": "RAIGAD"
  },
  {
    "area": "Panvel ICH",
    "pincode": "410206",
    "district": "RAIGAD"
  },
  {
    "area": "Panvel PH",
    "pincode": "410206",
    "district": "RAIGAD"
  },
  {
    "area": "PANVEL SORTING",
    "pincode": "410206",
    "district": "RAIGAD"
  },
  {
    "area": "Panvel Sorting L2R",
    "pincode": "410206",
    "district": "RAIGAD"
  },
  {
    "area": "Panvel Sorting L2S",
    "pincode": "410206",
    "district": "RAIGAD"
  },
  {
    "area": "Pigonde ",
    "pincode": "402106",
    "district": "RAIGAD"
  },
  {
    "area": "Pingalsai ",
    "pincode": "402109",
    "district": "RAIGAD"
  },
  {
    "area": "Pipenagar SO",
    "pincode": "402126",
    "district": "RAIGAD"
  },
  {
    "area": "Pitsai ",
    "pincode": "402111",
    "district": "RAIGAD"
  },
  {
    "area": "Poladpur SO",
    "pincode": "402303",
    "district": "RAIGAD"
  },
  {
    "area": "Poshir ",
    "pincode": "410101",
    "district": "RAIGAD"
  },
  {
    "area": "Poyanje ",
    "pincode": "410221",
    "district": "RAIGAD"
  },
  {
    "area": "Poynad SO",
    "pincode": "402108",
    "district": "RAIGAD"
  },
  {
    "area": "Pugaon ",
    "pincode": "402304",
    "district": "RAIGAD"
  },
  {
    "area": "Purar ",
    "pincode": "402103",
    "district": "RAIGAD"
  },
  {
    "area": "Rahatad ",
    "pincode": "402111",
    "district": "RAIGAD"
  },
  {
    "area": "Raigad Division",
    "pincode": "402201",
    "district": "RAIGAD"
  },
  {
    "area": "Rajewadi ",
    "pincode": "402309",
    "district": "RAIGAD"
  },
  {
    "area": "Rajpuri ",
    "pincode": "402401",
    "district": "RAIGAD"
  },
  {
    "area": "Ramraj ",
    "pincode": "402203",
    "district": "RAIGAD"
  },
  {
    "area": "Ranawali ",
    "pincode": "402110",
    "district": "RAIGAD"
  },
  {
    "area": "Ransai ",
    "pincode": "402107",
    "district": "RAIGAD"
  },
  {
    "area": "Rasayani S.O",
    "pincode": "410207",
    "district": "RAIGAD"
  },
  {
    "area": "Ratwad ",
    "pincode": "402112",
    "district": "RAIGAD"
  },
  {
    "area": "Ravalje ",
    "pincode": "410205",
    "district": "RAIGAD"
  },
  {
    "area": "Ravdhal ",
    "pincode": "402115",
    "district": "RAIGAD"
  },
  {
    "area": "Rave ",
    "pincode": "402107",
    "district": "RAIGAD"
  },
  {
    "area": "RCF Thal SO",
    "pincode": "402208",
    "district": "RAIGAD"
  },
  {
    "area": "Revdanda SO",
    "pincode": "402202",
    "district": "RAIGAD"
  },
  {
    "area": "Revtale ",
    "pincode": "402301",
    "district": "RAIGAD"
  },
  {
    "area": "Roha AV SO",
    "pincode": "402116",
    "district": "RAIGAD"
  },
  {
    "area": "Roha SO",
    "pincode": "402109",
    "district": "RAIGAD"
  },
  {
    "area": "Sadavali ",
    "pincode": "402303",
    "district": "RAIGAD"
  },
  {
    "area": "Sai ",
    "pincode": "410221",
    "district": "RAIGAD"
  },
  {
    "area": "Sai SO",
    "pincode": "402122",
    "district": "RAIGAD"
  },
  {
    "area": "Saigaon ",
    "pincode": "402110",
    "district": "RAIGAD"
  },
  {
    "area": "Sajgaon ",
    "pincode": "410203",
    "district": "RAIGAD"
  },
  {
    "area": "Sakhar ",
    "pincode": "402303",
    "district": "RAIGAD"
  },
  {
    "area": "Salokh T.Need ",
    "pincode": "410201",
    "district": "RAIGAD"
  },
  {
    "area": "Salvadnaka Mahad No Dly SO",
    "pincode": "402301",
    "district": "RAIGAD"
  },
  {
    "area": "Salvinde ",
    "pincode": "402105",
    "district": "RAIGAD"
  },
  {
    "area": "Sanderi ",
    "pincode": "402101",
    "district": "RAIGAD"
  },
  {
    "area": "Sandoshi ",
    "pincode": "402305",
    "district": "RAIGAD"
  },
  {
    "area": "Sanegaon ",
    "pincode": "402109",
    "district": "RAIGAD"
  },
  {
    "area": "Saral ",
    "pincode": "402209",
    "district": "RAIGAD"
  },
  {
    "area": "Sarsoli ",
    "pincode": "402109",
    "district": "RAIGAD"
  },
  {
    "area": "Sarve ",
    "pincode": "402403",
    "district": "RAIGAD"
  },
  {
    "area": "Sasawane ",
    "pincode": "402208",
    "district": "RAIGAD"
  },
  {
    "area": "Sav ",
    "pincode": "402301",
    "district": "RAIGAD"
  },
  {
    "area": "Savli ",
    "pincode": "402401",
    "district": "RAIGAD"
  },
  {
    "area": "Savrat ",
    "pincode": "402305",
    "district": "RAIGAD"
  },
  {
    "area": "Savroli ",
    "pincode": "410202",
    "district": "RAIGAD"
  },
  {
    "area": "Sawad ",
    "pincode": "402301",
    "district": "RAIGAD"
  },
  {
    "area": "Sawarsai ",
    "pincode": "402107",
    "district": "RAIGAD"
  },
  {
    "area": "Shahabaj ",
    "pincode": "402108",
    "district": "RAIGAD"
  },
  {
    "area": "Shahapur ",
    "pincode": "402108",
    "district": "RAIGAD"
  },
  {
    "area": "Shedsai ",
    "pincode": "402109",
    "district": "RAIGAD"
  },
  {
    "area": "Shekhadi ",
    "pincode": "402113",
    "district": "RAIGAD"
  },
  {
    "area": "Shelu ",
    "pincode": "410101",
    "district": "RAIGAD"
  },
  {
    "area": "Shenwai ",
    "pincode": "402109",
    "district": "RAIGAD"
  },
  {
    "area": "Sheva ",
    "pincode": "400702",
    "district": "RAIGAD"
  },
  {
    "area": "Shighare ",
    "pincode": "402401",
    "district": "RAIGAD"
  },
  {
    "area": "Shilphata S.O",
    "pincode": "410203",
    "district": "RAIGAD"
  },
  {
    "area": "Shirawali ",
    "pincode": "402120",
    "district": "RAIGAD"
  },
  {
    "area": "Shirdhon ",
    "pincode": "410221",
    "district": "RAIGAD"
  },
  {
    "area": "Shirki ",
    "pincode": "402107",
    "district": "RAIGAD"
  },
  {
    "area": "Shriwardhan SO",
    "pincode": "402110",
    "district": "RAIGAD"
  },
  {
    "area": "Siddheshwar ",
    "pincode": "410205",
    "district": "RAIGAD"
  },
  {
    "area": "Somatane ",
    "pincode": "410206",
    "district": "RAIGAD"
  },
  {
    "area": "Sonkhar ",
    "pincode": "402107",
    "district": "RAIGAD"
  },
  {
    "area": "SRO PANVEL SORTING",
    "pincode": "410206",
    "district": "RAIGAD"
  },
  {
    "area": "Sudkoli ",
    "pincode": "402203",
    "district": "RAIGAD"
  },
  {
    "area": "Sugawe ",
    "pincode": "410201",
    "district": "RAIGAD"
  },
  {
    "area": "Tala SO RaigarhMH",
    "pincode": "402111",
    "district": "RAIGAD"
  },
  {
    "area": "Talashet SO",
    "pincode": "402112",
    "district": "RAIGAD"
  },
  {
    "area": "Talavade ",
    "pincode": "402105",
    "district": "RAIGAD"
  },
  {
    "area": "Talawali Terfe Diwali ",
    "pincode": "402304",
    "district": "RAIGAD"
  },
  {
    "area": "Talegaon ",
    "pincode": "402111",
    "district": "RAIGAD"
  },
  {
    "area": "Talegaon Tarfe Goregaon ",
    "pincode": "402104",
    "district": "RAIGAD"
  },
  {
    "area": "Taliye ",
    "pincode": "402306",
    "district": "RAIGAD"
  },
  {
    "area": "Taloja A.V. S.O",
    "pincode": "410208",
    "district": "RAIGAD"
  },
  {
    "area": "Taloja ",
    "pincode": "410208",
    "district": "RAIGAD"
  },
  {
    "area": "Taloshi ",
    "pincode": "402305",
    "district": "RAIGAD"
  },
  {
    "area": "Tambadi ",
    "pincode": "402109",
    "district": "RAIGAD"
  },
  {
    "area": "Tamhane ",
    "pincode": "402307",
    "district": "RAIGAD"
  },
  {
    "area": "Tarankhop ",
    "pincode": "402107",
    "district": "RAIGAD"
  },
  {
    "area": "Tempale ",
    "pincode": "402104",
    "district": "RAIGAD"
  },
  {
    "area": "Tetghar ",
    "pincode": "402305",
    "district": "RAIGAD"
  },
  {
    "area": "Thal SO RaigarhMH",
    "pincode": "402207",
    "district": "RAIGAD"
  },
  {
    "area": "Tiware ",
    "pincode": "410201",
    "district": "RAIGAD"
  },
  {
    "area": "Tiware ",
    "pincode": "410205",
    "district": "RAIGAD"
  },
  {
    "area": "Tokarde ",
    "pincode": "402111",
    "district": "RAIGAD"
  },
  {
    "area": "TolBudruk ",
    "pincode": "402102",
    "district": "RAIGAD"
  },
  {
    "area": "Tondra ",
    "pincode": "410208",
    "district": "RAIGAD"
  },
  {
    "area": "Turbhe Khurd ",
    "pincode": "402303",
    "district": "RAIGAD"
  },
  {
    "area": "Ulwa ",
    "pincode": "410206",
    "district": "RAIGAD"
  },
  {
    "area": "Underi ",
    "pincode": "402301",
    "district": "RAIGAD"
  },
  {
    "area": "Unegaon ",
    "pincode": "402104",
    "district": "RAIGAD"
  },
  {
    "area": "Upper Tudil SO",
    "pincode": "402115",
    "district": "RAIGAD"
  },
  {
    "area": "Uran S.O",
    "pincode": "400702",
    "district": "RAIGAD"
  },
  {
    "area": "Usar ",
    "pincode": "402203",
    "district": "RAIGAD"
  },
  {
    "area": "Usar Khurd ",
    "pincode": "402104",
    "district": "RAIGAD"
  },
  {
    "area": "Usarghar ",
    "pincode": "402103",
    "district": "RAIGAD"
  },
  {
    "area": "Usroli ",
    "pincode": "402401",
    "district": "RAIGAD"
  },
  {
    "area": "Vadghar ",
    "pincode": "402110",
    "district": "RAIGAD"
  },
  {
    "area": "Vadhav ",
    "pincode": "402107",
    "district": "RAIGAD"
  },
  {
    "area": "Vadkhal ",
    "pincode": "402107",
    "district": "RAIGAD"
  },
  {
    "area": "Vadshetvave ",
    "pincode": "402110",
    "district": "RAIGAD"
  },
  {
    "area": "Vahoor ",
    "pincode": "402301",
    "district": "RAIGAD"
  },
  {
    "area": "Vaje ",
    "pincode": "410206",
    "district": "RAIGAD"
  },
  {
    "area": "Vakas ",
    "pincode": "410101",
    "district": "RAIGAD"
  },
  {
    "area": "Varandh SO",
    "pincode": "402306",
    "district": "RAIGAD"
  },
  {
    "area": "Varandoli ",
    "pincode": "402305",
    "district": "RAIGAD"
  },
  {
    "area": "Varsai ",
    "pincode": "402107",
    "district": "RAIGAD"
  },
  {
    "area": "Varse ",
    "pincode": "402116",
    "district": "RAIGAD"
  },
  {
    "area": "Varsoli ",
    "pincode": "402209",
    "district": "RAIGAD"
  },
  {
    "area": "Varvatane ",
    "pincode": "402105",
    "district": "RAIGAD"
  },
  {
    "area": "Vasheni ",
    "pincode": "410206",
    "district": "RAIGAD"
  },
  {
    "area": "Vashivali ",
    "pincode": "410220",
    "district": "RAIGAD"
  },
  {
    "area": "Vavoshi ",
    "pincode": "410203",
    "district": "RAIGAD"
  },
  {
    "area": "Veer ",
    "pincode": "402102",
    "district": "RAIGAD"
  },
  {
    "area": "Velas ",
    "pincode": "402403",
    "district": "RAIGAD"
  },
  {
    "area": "Vengaon ",
    "pincode": "410201",
    "district": "RAIGAD"
  },
  {
    "area": "Veshvi ",
    "pincode": "402209",
    "district": "RAIGAD"
  },
  {
    "area": "Vihoor ",
    "pincode": "402401",
    "district": "RAIGAD"
  },
  {
    "area": "Vikram Baug ",
    "pincode": "402202",
    "district": "RAIGAD"
  },
  {
    "area": "Vile ",
    "pincode": "402308",
    "district": "RAIGAD"
  },
  {
    "area": "Vinhere SO",
    "pincode": "402307",
    "district": "RAIGAD"
  },
  {
    "area": "Virjoli ",
    "pincode": "402109",
    "district": "RAIGAD"
  },
  {
    "area": "Wadvali ",
    "pincode": "402103",
    "district": "RAIGAD"
  },
  {
    "area": "Wadwali ",
    "pincode": "402403",
    "district": "RAIGAD"
  },
  {
    "area": "Wagheri ",
    "pincode": "402305",
    "district": "RAIGAD"
  },
  {
    "area": "Wagholi ",
    "pincode": "402302",
    "district": "RAIGAD"
  },
  {
    "area": "Wakan ",
    "pincode": "402303",
    "district": "RAIGAD"
  },
  {
    "area": "Wakanfata ",
    "pincode": "402106",
    "district": "RAIGAD"
  },
  {
    "area": "Waki Budruk ",
    "pincode": "402302",
    "district": "RAIGAD"
  },
  {
    "area": "Walan Budruk ",
    "pincode": "402302",
    "district": "RAIGAD"
  },
  {
    "area": "Walan Khurd ",
    "pincode": "402302",
    "district": "RAIGAD"
  },
  {
    "area": "Walang ",
    "pincode": "402115",
    "district": "RAIGAD"
  },
  {
    "area": "Wali ",
    "pincode": "402109",
    "district": "RAIGAD"
  },
  {
    "area": "Walke ",
    "pincode": "402202",
    "district": "RAIGAD"
  },
  {
    "area": "Walwati SO",
    "pincode": "402113",
    "district": "RAIGAD"
  },
  {
    "area": "Washi ",
    "pincode": "402107",
    "district": "RAIGAD"
  },
  {
    "area": "Wavandhal ",
    "pincode": "410206",
    "district": "RAIGAD"
  },
  {
    "area": "Wavarle ",
    "pincode": "410206",
    "district": "RAIGA"
  },
  {
    "area": "Wavediwali ",
    "pincode": "402112",
    "district": "RAIGAD"
  },
  {
    "area": "Wawanje ",
    "pincode": "410208",
    "district": "RAIGAD"
  },
  {
    "area": "Wighawali ",
    "pincode": "402112",
    "district": "RAIGAD"
  },
  {
    "area": "Zirad ",
    "pincode": "402208",
    "district": "RAIGAD"
  },
  {
    "area": "",
    "pincode": "",
    "district": ""
  }
]
