[
  {
    "area": "Abaloli S.O",
    "pincode": "415726",
    "district": "RATNAGIRI"
  },
  {
    "area": "Adavali ",
    "pincode": "415802",
    "district": "RATNAGIRI"
  },
  {
    "area": "Ade ",
    "pincode": "415714",
    "district": "RATNAGIRI"
  },
  {
    "area": "Adivare S.O",
    "pincode": "416707",
    "district": "RATNAGIRI"
  },
  {
    "area": "Adkhaltari ",
    "pincode": "415714",
    "district": "RATNAGIRI"
  },
  {
    "area": "Adre ",
    "pincode": "415604",
    "district": "RATNAGIRI"
  },
  {
    "area": "Adur S.O (Ratnagiri)",
    "pincode": "415705",
    "district": "RATNAGIRI"
  },
  {
    "area": "Agarwaingani ",
    "pincode": "415712",
    "district": "RATNAGIRI"
  },
  {
    "area": "Agave ",
    "pincode": "415606",
    "district": "RATNAGIRI"
  },
  {
    "area": "Agave ",
    "pincode": "415616",
    "district": "RATNAGIRI"
  },
  {
    "area": "Ajiwali ",
    "pincode": "416704",
    "district": "RATNAGIRI"
  },
  {
    "area": "Akale ",
    "pincode": "415604",
    "district": "RATNAGIRI"
  },
  {
    "area": "Alore S.O",
    "pincode": "415603",
    "district": "RATNAGIRI"
  },
  {
    "area": "Alsure ",
    "pincode": "415709",
    "district": "RATNAGIRI"
  },
  {
    "area": "Ambav ",
    "pincode": "415608",
    "district": "RATNAGIRI"
  },
  {
    "area": "Ambav ",
    "pincode": "415804",
    "district": "RATNAGIRI"
  },
  {
    "area": "Ambavali ",
    "pincode": "415804",
    "district": "RATNAGIRI"
  },
  {
    "area": "Ambavali S.O",
    "pincode": "415730",
    "district": "RATNAGIRI"
  },
  {
    "area": "Ambaye ",
    "pincode": "415709",
    "district": "RATNAGIRI"
  },
  {
    "area": "Ambdas ",
    "pincode": "415605",
    "district": "RATNAGIRI"
  },
  {
    "area": "Ambed Budruk S.O",
    "pincode": "415637",
    "district": "RATNAGIRI"
  },
  {
    "area": "Ambitgaon ",
    "pincode": "415641",
    "district": "RATNAGIRI"
  },
  {
    "area": "Ambolgad ",
    "pincode": "415806",
    "district": "RATNAGIRI"
  },
  {
    "area": "Amdave ",
    "pincode": "415203",
    "district": "RATNAGIRI"
  },
  {
    "area": "Anari ",
    "pincode": "415604",
    "district": "RATNAGIRI"
  },
  {
    "area": "Angale ",
    "pincode": "416702",
    "district": "RATNAGIRI"
  },
  {
    "area": "Angavali ",
    "pincode": "415804",
    "district": "RATNAGIRI"
  },
  {
    "area": "Anjanari ",
    "pincode": "415803",
    "district": "RATNAGIRI"
  },
  {
    "area": "Anjanvel ",
    "pincode": "415634",
    "district": "RATNAGIRI"
  },
  {
    "area": "Anjarla S.O",
    "pincode": "415714",
    "district": "RATNAGIRI"
  },
  {
    "area": "Ansure ",
    "pincode": "416702",
    "district": "RATNAGIRI"
  },
  {
    "area": "Antravali ",
    "pincode": "415610",
    "district": "RATNAGIRI"
  },
  {
    "area": "Aravali ",
    "pincode": "415608",
    "district": "RATNAGIRI"
  },
  {
    "area": "Are ",
    "pincode": "415703",
    "district": "RATNAGIRI"
  },
  {
    "area": "Argaon ",
    "pincode": "415643",
    "district": "RATNAGIRI"
  },
  {
    "area": "Asage ",
    "pincode": "416712",
    "district": "RATNAGIRI"
  },
  {
    "area": "Asgani ",
    "pincode": "415708",
    "district": "RATNAGIRI"
  },
  {
    "area": "Asgoli ",
    "pincode": "415703",
    "district": "RATNAGIRI"
  },
  {
    "area": "Ashti ",
    "pincode": "415709",
    "district": "RATNAGIRI"
  },
  {
    "area": "Asond ",
    "pincode": "415711",
    "district": "RATNAGIRI"
  },
  {
    "area": "Asore ",
    "pincode": "415726",
    "district": "RATNAGIRI"
  },
  {
    "area": "Astan ",
    "pincode": "415730",
    "district": "RATNAGIRI"
  },
  {
    "area": "Asud ",
    "pincode": "415713",
    "district": "RATNAGIRI"
  },
  {
    "area": "Asurda ",
    "pincode": "415606",
    "district": "RATNAGIRI"
  },
  {
    "area": "Avashi ",
    "pincode": "415722",
    "district": "RATNAGIRI"
  },
  {
    "area": "Ayani ",
    "pincode": "415708",
    "district": "RATNAGIRI"
  },
  {
    "area": "Bagave Wadi ",
    "pincode": "416704",
    "district": "RATNAGIRI"
  },
  {
    "area": "Bahiravali ",
    "pincode": "415727",
    "district": "RATNAGIRI"
  },
  {
    "area": "Bamnoli ",
    "pincode": "415701",
    "district": "RATNAGIRI"
  },
  {
    "area": "Bamnoli ",
    "pincode": "415804",
    "district": "RATNAGIRI"
  },
  {
    "area": "Bankot ",
    "pincode": "415208",
    "district": "RATNAGIRI"
  },
  {
    "area": "Bapere ",
    "pincode": "416701",
    "district": "RATNAGIRI"
  },
  {
    "area": "Basani ",
    "pincode": "415629",
    "district": "RATNAGIRI"
  },
  {
    "area": "Belari Budruk ",
    "pincode": "415804",
    "district": "RATNAGIRI"
  },
  {
    "area": "Beni Budruk ",
    "pincode": "416712",
    "district": "RATNAGIRI"
  },
  {
    "area": "Bhade ",
    "pincode": "416712",
    "district": "RATNAGIRI"
  },
  {
    "area": "Bhadkamba ",
    "pincode": "415801",
    "district": "RATNAGIRI"
  },
  {
    "area": "Bhalavali ",
    "pincode": "416707",
    "district": "RATNAGIRI"
  },
  {
    "area": "Bhambed ",
    "pincode": "416701",
    "district": "RATNAGIRI"
  },
  {
    "area": "Bharane S.O",
    "pincode": "415621",
    "district": "RATNAGIRI"
  },
  {
    "area": "Bhatgaon ",
    "pincode": "415726",
    "district": "RATNAGIRI"
  },
  {
    "area": "Bhatye ",
    "pincode": "415612",
    "district": "RATNAGIRI"
  },
  {
    "area": "Bhelsai ",
    "pincode": "415605",
    "district": "RATNAGIRI"
  },
  {
    "area": "Bhile ",
    "pincode": "415605",
    "district": "RATNAGIRI"
  },
  {
    "area": "Bhoke ",
    "pincode": "415639",
    "district": "RATNAGIRI"
  },
  {
    "area": "Bhom ",
    "pincode": "415628",
    "district": "RATNAGIRI"
  },
  {
    "area": "Bhoo S.O",
    "pincode": "416713",
    "district": "RATNAGIRI"
  },
  {
    "area": "Bhopan ",
    "pincode": "415711",
    "district": "RATNAGIRI"
  },
  {
    "area": "Bijghar ",
    "pincode": "415715",
    "district": "RATNAGIRI"
  },
  {
    "area": "Biwali ",
    "pincode": "415628",
    "district": "RATNAGIRI"
  },
  {
    "area": "Boraj ",
    "pincode": "415709",
    "district": "RATNAGIRI"
  },
  {
    "area": "Borgaon ",
    "pincode": "415701",
    "district": "RATNAGIRI"
  },
  {
    "area": "Burambad ",
    "pincode": "415608",
    "district": "RATNAGIRI"
  },
  {
    "area": "Burambe Wadi ",
    "pincode": "416702",
    "district": "RATNAGIRI"
  },
  {
    "area": "Burondi S.O",
    "pincode": "415720",
    "district": "RATNAGIRI"
  },
  {
    "area": "Chafavali ",
    "pincode": "415807",
    "district": "RATNAGIRI"
  },
  {
    "area": "Chafe ",
    "pincode": "415620",
    "district": "RATNAGIRI"
  },
  {
    "area": "Chandor ",
    "pincode": "415616",
    "district": "RATNAGIRI"
  },
  {
    "area": "Charveli ",
    "pincode": "415619",
    "district": "RATNAGIRI"
  },
  {
    "area": "Chave ",
    "pincode": "415620",
    "district": "RATNAGIRI"
  },
  {
    "area": "Chickalgaon ",
    "pincode": "415712",
    "district": "RATNAGIRI"
  },
  {
    "area": "Chikhali ",
    "pincode": "415724",
    "district": "RATNAGIRI"
  },
  {
    "area": "Chikhali ",
    "pincode": "415609",
    "district": "RATNAGIRI"
  },
  {
    "area": "Chinchavali ",
    "pincode": "415640",
    "district": "RATNAGIRI"
  },
  {
    "area": "Chinchghar ",
    "pincode": "415710",
    "district": "RATNAGIRI"
  },
  {
    "area": "Chinchghar ",
    "pincode": "415203",
    "district": "RATNAGIRI"
  },
  {
    "area": "Chinchghari ",
    "pincode": "415604",
    "district": "RATNAGIRI"
  },
  {
    "area": "Chinchkhari ",
    "pincode": "415612",
    "district": "RATNAGIRI"
  },
  {
    "area": "Chindravale ",
    "pincode": "415728",
    "district": "RATNAGIRI"
  },
  {
    "area": "Chiplun H.O",
    "pincode": "415605",
    "district": "RATNAGIRI"
  },
  {
    "area": "Chiplun Sub Division",
    "pincode": "415605",
    "district": "RATNAGIRI"
  },
  {
    "area": "Chirni ",
    "pincode": "415605",
    "district": "RATNAGIRI"
  },
  {
    "area": "Chiveli ",
    "pincode": "415701",
    "district": "RATNAGIRI"
  },
  {
    "area": "Choravane ",
    "pincode": "415718",
    "district": "RATNAGIRI"
  },
  {
    "area": "Choravane ",
    "pincode": "415803",
    "district": "RATNAGIRI"
  },
  {
    "area": "Dabhil ",
    "pincode": "415711",
    "district": "RATNAGIRI"
  },
  {
    "area": "Dabhol S.O",
    "pincode": "415706",
    "district": "RATNAGIRI"
  },
  {
    "area": "Dabhole ",
    "pincode": "415803",
    "district": "RATNAGIRI"
  },
  {
    "area": "Dahagaon ",
    "pincode": "415203",
    "district": "RATNAGIRI"
  },
  {
    "area": "Dahivali Budruk ",
    "pincode": "415606",
    "district": "RATNAGIRI"
  },
  {
    "area": "Dale ",
    "pincode": "415805",
    "district": "RATNAGIRI"
  },
  {
    "area": "Dalvatane ",
    "pincode": "415604",
    "district": "RATNAGIRI"
  },
  {
    "area": "Dande Adom ",
    "pincode": "415612",
    "district": "RATNAGIRI"
  },
  {
    "area": "Dapoli S.O",
    "pincode": "415712",
    "district": "RATNAGIRI"
  },
  {
    "area": "Dapoli Sub Division",
    "pincode": "415712",
    "district": "RATNAGIRI"
  },
  {
    "area": "Dasur ",
    "pincode": "416713",
    "district": "RATNAGIRI"
  },
  {
    "area": "Dayal ",
    "pincode": "415710",
    "district": "RATNAGIRI"
  },
  {
    "area": "Degaon ",
    "pincode": "415711",
    "district": "RATNAGIRI"
  },
  {
    "area": "Dehen ",
    "pincode": "415712",
    "district": "RATNAGIRI"
  },
  {
    "area": "Deole Ghera Prachitgad ",
    "pincode": "415611",
    "district": "RATNAGIRI"
  },
  {
    "area": "Dervan ",
    "pincode": "415606",
    "district": "RATNAGIRI"
  },
  {
    "area": "Deud ",
    "pincode": "415620",
    "district": "RATNAGIRI"
  },
  {
    "area": "Devache Gothane ",
    "pincode": "416702",
    "district": "RATNAGIRI"
  },
  {
    "area": "Devade ",
    "pincode": "415801",
    "district": "RATNAGIRI"
  },
  {
    "area": "Devadhe S.O",
    "pincode": "416712",
    "district": "RATNAGIRI"
  },
  {
    "area": "Devale S.O",
    "pincode": "415807",
    "district": "RATNAGIRI"
  },
  {
    "area": "Devghar ",
    "pincode": "415730",
    "district": "RATNAGIRI"
  },
  {
    "area": "Devhare ",
    "pincode": "415208",
    "district": "RATNAGIRI"
  },
  {
    "area": "Devihasol ",
    "pincode": "416713",
    "district": "RATNAGIRI"
  },
  {
    "area": "Devrukh S.O",
    "pincode": "415804",
    "district": "RATNAGIRI"
  },
  {
    "area": "Devrukh Sub Div.",
    "pincode": "415804",
    "district": "RATNAGIRI"
  },
  {
    "area": "Dhakmoli ",
    "pincode": "415641",
    "district": "RATNAGIRI"
  },
  {
    "area": "Dhamanand S.O",
    "pincode": "415718",
    "district": "RATNAGIRI"
  },
  {
    "area": "Dhamandevi ",
    "pincode": "415605",
    "district": "RATNAGIRI"
  },
  {
    "area": "Dhamani ",
    "pincode": "415709",
    "district": "RATNAGIRI"
  },
  {
    "area": "Dhamani ",
    "pincode": "415611",
    "district": "RATNAGIRI"
  },
  {
    "area": "Dhamanse ",
    "pincode": "415620",
    "district": "RATNAGIRI"
  },
  {
    "area": "Dhamapur ",
    "pincode": "415608",
    "district": "RATNAGIRI"
  },
  {
    "area": "Dhamnavane ",
    "pincode": "415604",
    "district": "RATNAGIRI"
  },
  {
    "area": "Dhaulwali ",
    "pincode": "415806",
    "district": "RATNAGIRI"
  },
  {
    "area": "Dhopave ",
    "pincode": "415703",
    "district": "RATNAGIRI"
  },
  {
    "area": "Dhopeshwar ",
    "pincode": "416702",
    "district": "RATNAGIRI"
  },
  {
    "area": "Dhutroli ",
    "pincode": "415203",
    "district": "RATNAGIRI"
  },
  {
    "area": "Dingni ",
    "pincode": "415611",
    "district": "RATNAGIRI"
  },
  {
    "area": "DISTRICT BAG OFFICE RATNAGIRI",
    "pincode": "415612",
    "district": "RATNAGIRI"
  },
  {
    "area": "Dodavali ",
    "pincode": "415728",
    "district": "RATNAGIRI"
  },
  {
    "area": "Donavali ",
    "pincode": "415628",
    "district": "RATNAGIRI"
  },
  {
    "area": "Dongar ",
    "pincode": "416702",
    "district": "RATNAGIRI"
  },
  {
    "area": "Donivade ",
    "pincode": "416702",
    "district": "RATNAGIRI"
  },
  {
    "area": "Dorle ",
    "pincode": "415626",
    "district": "RATNAGIRI"
  },
  {
    "area": "Durgawadi ",
    "pincode": "415606",
    "district": "RATNAGIRI"
  },
  {
    "area": "Fungus ",
    "pincode": "415611",
    "district": "RATNAGIRI"
  },
  {
    "area": "Furus ",
    "pincode": "415606",
    "district": "RATNAGIRI"
  },
  {
    "area": "Furus S.O",
    "pincode": "415710",
    "district": "RATNAGIRI"
  },
  {
    "area": "Ganeshgule ",
    "pincode": "415616",
    "district": "RATNAGIRI"
  },
  {
    "area": "Ganpatipule ",
    "pincode": "415615",
    "district": "RATNAGIRI"
  },
  {
    "area": "Gavade Ambere ",
    "pincode": "415626",
    "district": "RATNAGIRI"
  },
  {
    "area": "Gavane ",
    "pincode": "416712",
    "district": "RATNAGIRI"
  },
  {
    "area": "Gavkhadi S.O",
    "pincode": "415626",
    "district": "RATNAGIRI"
  },
  {
    "area": "Gharadi ",
    "pincode": "415203",
    "district": "RATNAGIRI"
  },
  {
    "area": "Ghativale ",
    "pincode": "415803",
    "district": "RATNAGIRI"
  },
  {
    "area": "Ghera Rasalgad ",
    "pincode": "415730",
    "district": "RATNAGIRI"
  },
  {
    "area": "Ghodavali ",
    "pincode": "415639",
    "district": "RATNAGIRI"
  },
  {
    "area": "Ghude ",
    "pincode": "415701",
    "district": "RATNAGIRI"
  },
  {
    "area": "Gimvi ",
    "pincode": "415702",
    "district": "RATNAGIRI"
  },
  {
    "area": "Golap ",
    "pincode": "415616",
    "district": "RATNAGIRI"
  },
  {
    "area": "Golavali ",
    "pincode": "415611",
    "district": "RATNAGIRI"
  },
  {
    "area": "Golawashi ",
    "pincode": "416701",
    "district": "RATNAGIRI"
  },
  {
    "area": "Gondhale ",
    "pincode": "415628",
    "district": "RATNAGIRI"
  },
  {
    "area": "Gothane Doniwade ",
    "pincode": "416705",
    "district": "RATNAGIRI"
  },
  {
    "area": "Gothe ",
    "pincode": "415208",
    "district": "RATNAGIRI"
  },
  {
    "area": "Goval ",
    "pincode": "416702",
    "district": "RATNAGIRI"
  },
  {
    "area": "Govil ",
    "pincode": "416701",
    "district": "RATNAGIRI"
  },
  {
    "area": "Guhagar S.O",
    "pincode": "415703",
    "district": "RATNAGIRI"
  },
  {
    "area": "Guhagar Sub Division",
    "pincode": "415724",
    "district": "RATNAGIRI"
  },
  {
    "area": "Gunade ",
    "pincode": "415722",
    "district": "RATNAGIRI"
  },
  {
    "area": "Haral ",
    "pincode": "416704",
    "district": "RATNAGIRI"
  },
  {
    "area": "Harche ",
    "pincode": "416712",
    "district": "RATNAGIRI"
  },
  {
    "area": "Harcheri ",
    "pincode": "416712",
    "district": "RATNAGIRI"
  },
  {
    "area": "Hardakhale ",
    "pincode": "416701",
    "district": "RATNAGIRI"
  },
  {
    "area": "Harnai S.O",
    "pincode": "415713",
    "district": "RATNAGIRI"
  },
  {
    "area": "Harpude ",
    "pincode": "415804",
    "district": "RATNAGIRI"
  },
  {
    "area": "Hasol Tarf Saundal ",
    "pincode": "416702",
    "district": "RATNAGIRI"
  },
  {
    "area": "Hatade ",
    "pincode": "416704",
    "district": "RATNAGIRI"
  },
  {
    "area": "Hativ ",
    "pincode": "415804",
    "district": "RATNAGIRI"
  },
  {
    "area": "Hatkhamba S.O",
    "pincode": "415619",
    "district": "RATNAGIRI"
  },
  {
    "area": "Hedali ",
    "pincode": "415709",
    "district": "RATNAGIRI"
  },
  {
    "area": "Hedavi S.O",
    "pincode": "415728",
    "district": "RATNAGIRI"
  },
  {
    "area": "Holi ",
    "pincode": "415805",
    "district": "RATNAGIRI"
  },
  {
    "area": "Humbri ",
    "pincode": "415730",
    "district": "RATNAGIRI"
  },
  {
    "area": "Ibrahimpattan ",
    "pincode": "416712",
    "district": "RATNAGIRI"
  },
  {
    "area": "Ilne ",
    "pincode": "415714",
    "district": "RATNAGIRI"
  },
  {
    "area": "Indavati ",
    "pincode": "416701",
    "district": "RATNAGIRI"
  },
  {
    "area": "Isavali ",
    "pincode": "416701",
    "district": "RATNAGIRI"
  },
  {
    "area": "Jaigad S.O",
    "pincode": "415614",
    "district": "RATNAGIRI"
  },
  {
    "area": "Jaitapur S.O",
    "pincode": "415805",
    "district": "RATNAGIRI"
  },
  {
    "area": "Jalgaon ",
    "pincode": "415712",
    "district": "RATNAGIRI"
  },
  {
    "area": "Jamage ",
    "pincode": "415709",
    "district": "RATNAGIRI"
  },
  {
    "area": "Jamage ",
    "pincode": "415716",
    "district": "RATNAGIRI"
  },
  {
    "area": "Jambhari ",
    "pincode": "415613",
    "district": "RATNAGIRI"
  },
  {
    "area": "Jamsud ",
    "pincode": "415703",
    "district": "RATNAGIRI"
  },
  {
    "area": "Javade ",
    "pincode": "416701",
    "district": "RATNAGIRI"
  },
  {
    "area": "Jawalethar ",
    "pincode": "416704",
    "district": "RATNAGIRI"
  },
  {
    "area": "Juwathi ",
    "pincode": "416702",
    "district": "RATNAGIRI"
  },
  {
    "area": "Kadavali ",
    "pincode": "415605",
    "district": "RATNAGIRI"
  },
  {
    "area": "Kadivali ",
    "pincode": "415712",
    "district": "RATNAGIRI"
  },
  {
    "area": "Kadwad ",
    "pincode": "415604",
    "district": "RATNAGIRI"
  },
  {
    "area": "Kadwai S.O",
    "pincode": "415609",
    "district": "RATNAGIRI"
  },
  {
    "area": "Kajirda ",
    "pincode": "416704",
    "district": "RATNAGIRI"
  },
  {
    "area": "Kajurli ",
    "pincode": "415726",
    "district": "RATNAGIRI"
  },
  {
    "area": "Kalamani Budruk ",
    "pincode": "415621",
    "district": "RATNAGIRI"
  },
  {
    "area": "Kalamani Khurd ",
    "pincode": "415730",
    "district": "RATNAGIRI"
  },
  {
    "area": "Kalambaste ",
    "pincode": "415605",
    "district": "RATNAGIRI"
  },
  {
    "area": "Kalambaste ",
    "pincode": "415610",
    "district": "RATNAGIRI"
  },
  {
    "area": "Kalambat ",
    "pincode": "415712",
    "district": "RATNAGIRI"
  },
  {
    "area": "Kalambat ",
    "pincode": "415641",
    "district": "RATNAGIRI"
  },
  {
    "area": "Kalambushi ",
    "pincode": "415608",
    "district": "RATNAGIRI"
  },
  {
    "area": "Kalamundi ",
    "pincode": "415702",
    "district": "RATNAGIRI"
  },
  {
    "area": "Kalbadevi ",
    "pincode": "415629",
    "district": "RATNAGIRI"
  },
  {
    "area": "Kalkavane ",
    "pincode": "415604",
    "district": "RATNAGIRI"
  },
  {
    "area": "Kalsavali ",
    "pincode": "416705",
    "district": "RATNAGIRI"
  },
  {
    "area": "Kalsur Koundhar ",
    "pincode": "415724",
    "district": "RATNAGIRI"
  },
  {
    "area": "Kaluste ",
    "pincode": "415605",
    "district": "RATNAGIRI"
  },
  {
    "area": "Kalvande ",
    "pincode": "415605",
    "district": "RATNAGIRI"
  },
  {
    "area": "Kalzondi ",
    "pincode": "415620",
    "district": "RATNAGIRI"
  },
  {
    "area": "Kamathe ",
    "pincode": "415605",
    "district": "RATNAGIRI"
  },
  {
    "area": "Kaneri ",
    "pincode": "416702",
    "district": "RATNAGIRI"
  },
  {
    "area": "Kangwai ",
    "pincode": "415712",
    "district": "RATNAGIRI"
  },
  {
    "area": "Kanhe ",
    "pincode": "415604",
    "district": "RATNAGIRI"
  },
  {
    "area": "Kankadi ",
    "pincode": "415803",
    "district": "RATNAGIRI"
  },
  {
    "area": "Kapad Gaon ",
    "pincode": "415619",
    "district": "RATNAGIRI"
  },
  {
    "area": "Kapre ",
    "pincode": "415628",
    "district": "RATNAGIRI"
  },
  {
    "area": "Kapsal ",
    "pincode": "415605",
    "district": "RATNAGIRI"
  },
  {
    "area": "Karak ",
    "pincode": "416704",
    "district": "RATNAGIRI"
  },
  {
    "area": "Karambavane ",
    "pincode": "415628",
    "district": "RATNAGIRI"
  },
  {
    "area": "Karambele Tarf Devale ",
    "pincode": "415804",
    "district": "RATNAGIRI"
  },
  {
    "area": "Karanjani ",
    "pincode": "415712",
    "district": "RATNAGIRI"
  },
  {
    "area": "Karanjgaon ",
    "pincode": "415720",
    "district": "RATNAGIRI"
  },
  {
    "area": "Karavali ",
    "pincode": "416704",
    "district": "RATNAGIRI"
  },
  {
    "area": "Karbhatale ",
    "pincode": "415610",
    "district": "RATNAGIRI"
  },
  {
    "area": "Karbude ",
    "pincode": "415639",
    "district": "RATNAGIRI"
  },
  {
    "area": "Karde ",
    "pincode": "415713",
    "district": "RATNAGIRI"
  },
  {
    "area": "Karji S.O",
    "pincode": "415727",
    "district": "RATNAGIRI"
  },
  {
    "area": "Karjikar Mohalla ",
    "pincode": "415628",
    "district": "RATNAGIRI"
  },
  {
    "area": "Karjuve ",
    "pincode": "415608",
    "district": "RATNAGIRI"
  },
  {
    "area": "Karla ",
    "pincode": "415612",
    "district": "RATNAGIRI"
  },
  {
    "area": "Karli ",
    "pincode": "415804",
    "district": "RATNAGIRI"
  },
  {
    "area": "Karul ",
    "pincode": "415719",
    "district": "RATNAGIRI"
  },
  {
    "area": "Kasai ",
    "pincode": "415718",
    "district": "RATNAGIRI"
  },
  {
    "area": "Kasar Kolwan ",
    "pincode": "415804",
    "district": "RATNAGIRI"
  },
  {
    "area": "Kasarveli ",
    "pincode": "415629",
    "district": "RATNAGIRI"
  },
  {
    "area": "Kasba S.O (Ratnagiri)",
    "pincode": "415610",
    "district": "RATNAGIRI"
  },
  {
    "area": "Kase ",
    "pincode": "415608",
    "district": "RATNAGIRI"
  },
  {
    "area": "Kashedi ",
    "pincode": "415640",
    "district": "RATNAGIRI"
  },
  {
    "area": "Kasheli ",
    "pincode": "416707",
    "district": "RATNAGIRI"
  },
  {
    "area": "Katali Sagave ",
    "pincode": "416709",
    "district": "RATNAGIRI"
  },
  {
    "area": "Katavali ",
    "pincode": "415804",
    "district": "RATNAGIRI"
  },
  {
    "area": "Katroli ",
    "pincode": "415701",
    "district": "RATNAGIRI"
  },
  {
    "area": "Kaundhar Tamhane ",
    "pincode": "415702",
    "district": "RATNAGIRI"
  },
  {
    "area": "Kelambe ",
    "pincode": "416701",
    "district": "RATNAGIRI"
  },
  {
    "area": "Kelavali ",
    "pincode": "416702",
    "district": "RATNAGIRI"
  },
  {
    "area": "Kelne ",
    "pincode": "415605",
    "district": "RATNAGIRI"
  },
  {
    "area": "Kelshi S.O",
    "pincode": "415717",
    "district": "RATNAGIRI"
  },
  {
    "area": "Kelye ",
    "pincode": "415612",
    "district": "RATNAGIRI"
  },
  {
    "area": "Kespuri ",
    "pincode": "415620",
    "district": "RATNAGIRI"
  },
  {
    "area": "Khadpoli ",
    "pincode": "415603",
    "district": "RATNAGIRI"
  },
  {
    "area": "Khalgaon S.O",
    "pincode": "415620",
    "district": "RATNAGIRI"
  },
  {
    "area": "Khanavali ",
    "pincode": "416712",
    "district": "RATNAGIRI"
  },
  {
    "area": "Khanu ",
    "pincode": "415803",
    "district": "RATNAGIRI"
  },
  {
    "area": "Kharvate ",
    "pincode": "415628",
    "district": "RATNAGIRI"
  },
  {
    "area": "Kharvate ",
    "pincode": "416705",
    "district": "RATNAGIRI"
  },
  {
    "area": "Khavadi ",
    "pincode": "416701",
    "district": "RATNAGIRI"
  },
  {
    "area": "Khavati S.O",
    "pincode": "415640",
    "district": "RATNAGIRI"
  },
  {
    "area": "Khed (RTG) S.O",
    "pincode": "415709",
    "district": "RATNAGIRI"
  },
  {
    "area": "Khed City S.O",
    "pincode": "415709",
    "district": "RATNAGIRI"
  },
  {
    "area": "Khed Sub Div.",
    "pincode": "415709",
    "district": "RATNAGIRI"
  },
  {
    "area": "Khedashi ",
    "pincode": "415639",
    "district": "RATNAGIRI"
  },
  {
    "area": "Kherdi ",
    "pincode": "415712",
    "district": "RATNAGIRI"
  },
  {
    "area": "Kherdi S.O",
    "pincode": "415604",
    "district": "RATNAGIRI"
  },
  {
    "area": "Khodade ",
    "pincode": "415726",
    "district": "RATNAGIRI"
  },
  {
    "area": "Khopad ",
    "pincode": "415628",
    "district": "RATNAGIRI"
  },
  {
    "area": "Khopi S.O",
    "pincode": "415715",
    "district": "RATNAGIRI"
  },
  {
    "area": "Khorninko ",
    "pincode": "416701",
    "district": "RATNAGIRI"
  },
  {
    "area": "Kirbet ",
    "pincode": "415801",
    "district": "RATNAGIRI"
  },
  {
    "area": "Kirduve ",
    "pincode": "415804",
    "district": "RATNAGIRI"
  },
  {
    "area": "Kochari ",
    "pincode": "415802",
    "district": "RATNAGIRI"
  },
  {
    "area": "Kodavali ",
    "pincode": "416702",
    "district": "RATNAGIRI"
  },
  {
    "area": "Kokare ",
    "pincode": "415608",
    "district": "RATNAGIRI"
  },
  {
    "area": "Kolamb ",
    "pincode": "416704",
    "district": "RATNAGIRI"
  },
  {
    "area": "Kolambe ",
    "pincode": "415612",
    "district": "RATNAGIRI"
  },
  {
    "area": "Kolambe(S) ",
    "pincode": "415637",
    "district": "RATNAGIRI"
  },
  {
    "area": "Kolawali ",
    "pincode": "415726",
    "district": "RATNAGIRI"
  },
  {
    "area": "Kolbandre ",
    "pincode": "415711",
    "district": "RATNAGIRI"
  },
  {
    "area": "Koldhe ",
    "pincode": "416712",
    "district": "RATNAGIRI"
  },
  {
    "area": "Kolisare ",
    "pincode": "415620",
    "district": "RATNAGIRI"
  },
  {
    "area": "Kolke Wadi ",
    "pincode": "415603",
    "district": "RATNAGIRI"
  },
  {
    "area": "Kolthare ",
    "pincode": "415712",
    "district": "RATNAGIRI"
  },
  {
    "area": "Kolwan Chuna ",
    "pincode": "416705",
    "district": "RATNAGIRI"
  },
  {
    "area": "Kolwan Khadi ",
    "pincode": "416704",
    "district": "RATNAGIRI"
  },
  {
    "area": "Kondge ",
    "pincode": "415643",
    "district": "RATNAGIRI"
  },
  {
    "area": "Kondivali ",
    "pincode": "415709",
    "district": "RATNAGIRI"
  },
  {
    "area": "Kondivare ",
    "pincode": "415608",
    "district": "RATNAGIRI"
  },
  {
    "area": "Kondmala ",
    "pincode": "415606",
    "district": "RATNAGIRI"
  },
  {
    "area": "Kondsur Budruk ",
    "pincode": "416707",
    "district": "RATNAGIRI"
  },
  {
    "area": "Kondye ",
    "pincode": "415620",
    "district": "RATNAGIRI"
  },
  {
    "area": "Kondye ",
    "pincode": "416701",
    "district": "RATNAGIRI"
  },
  {
    "area": "Kondye ",
    "pincode": "416702",
    "district": "RATNAGIRI"
  },
  {
    "area": "Koregaon ",
    "pincode": "415709",
    "district": "RATNAGIRI"
  },
  {
    "area": "Korle ",
    "pincode": "416701",
    "district": "RATNAGIRI"
  },
  {
    "area": "Kosbi ",
    "pincode": "415606",
    "district": "RATNAGIRI"
  },
  {
    "area": "Kosumb ",
    "pincode": "415804",
    "district": "RATNAGIRI"
  },
  {
    "area": "Kot ",
    "pincode": "416712",
    "district": "RATNAGIRI"
  },
  {
    "area": "Kotapur ",
    "pincode": "416702",
    "district": "RATNAGIRI"
  },
  {
    "area": "Kotavali ",
    "pincode": "415722",
    "district": "RATNAGIRI"
  },
  {
    "area": "Kotawada S.O",
    "pincode": "415617",
    "district": "RATNAGIRI"
  },
  {
    "area": "Kotluk ",
    "pincode": "415703",
    "district": "RATNAGIRI"
  },
  {
    "area": "Kudali ",
    "pincode": "415613",
    "district": "RATNAGIRI"
  },
  {
    "area": "Kudavale ",
    "pincode": "415712",
    "district": "RATNAGIRI"
  },
  {
    "area": "Kulvandi ",
    "pincode": "415715",
    "district": "RATNAGIRI"
  },
  {
    "area": "Kumbale ",
    "pincode": "415203",
    "district": "RATNAGIRI"
  },
  {
    "area": "Kumbhad ",
    "pincode": "415715",
    "district": "RATNAGIRI"
  },
  {
    "area": "Kumbharkhani ",
    "pincode": "415607",
    "district": "RATNAGIRI"
  },
  {
    "area": "Kumbharli ",
    "pincode": "415602",
    "district": "RATNAGIRI"
  },
  {
    "area": "Kumbhavade ",
    "pincode": "416702",
    "district": "RATNAGIRI"
  },
  {
    "area": "Kundi ",
    "pincode": "415804",
    "district": "RATNAGIRI"
  },
  {
    "area": "Kurang ",
    "pincode": "415643",
    "district": "RATNAGIRI"
  },
  {
    "area": "Kurdhunda ",
    "pincode": "415611",
    "district": "RATNAGIRI"
  },
  {
    "area": "Kurne ",
    "pincode": "416712",
    "district": "RATNAGIRI"
  },
  {
    "area": "Kurtade ",
    "pincode": "416712",
    "district": "RATNAGIRI"
  },
  {
    "area": "Kurwal Jawali ",
    "pincode": "415718",
    "district": "RATNAGIRI"
  },
  {
    "area": "Kutgiri ",
    "pincode": "415702",
    "district": "RATNAGIRI"
  },
  {
    "area": "Kutra ",
    "pincode": "415607",
    "district": "RATNAGIRI"
  },
  {
    "area": "Kuvarbav S.O",
    "pincode": "415639",
    "district": "RATNAGIRI"
  },
  {
    "area": "Kuve ",
    "pincode": "416701",
    "district": "RATNAGIRI"
  },
  {
    "area": "Kuveshi ",
    "pincode": "415805",
    "district": "RATNAGIRI"
  },
  {
    "area": "Ladghar ",
    "pincode": "415712",
    "district": "RATNAGIRI"
  },
  {
    "area": "Lanja S.O",
    "pincode": "416701",
    "district": "RATNAGIRI"
  },
  {
    "area": "Lanja Sub Division",
    "pincode": "416701",
    "district": "RATNAGIRI"
  },
  {
    "area": "Latwan S.O",
    "pincode": "415202",
    "district": "RATNAGIRI"
  },
  {
    "area": "Lavel S.O",
    "pincode": "415708",
    "district": "RATNAGIRI"
  },
  {
    "area": "Lavgan ",
    "pincode": "416712",
    "district": "RATNAGIRI"
  },
  {
    "area": "Lote S.O (Ratnagiri)",
    "pincode": "415722",
    "district": "RATNAGIRI"
  },
  {
    "area": "Lowale ",
    "pincode": "415611",
    "district": "RATNAGIRI"
  },
  {
    "area": "Mabhale ",
    "pincode": "415611",
    "district": "RATNAGIRI"
  },
  {
    "area": "Madban ",
    "pincode": "415805",
    "district": "RATNAGIRI"
  },
  {
    "area": "Mahalunge ",
    "pincode": "415730",
    "district": "RATNAGIRI"
  },
  {
    "area": "Majal ",
    "pincode": "416701",
    "district": "RATNAGIRI"
  },
  {
    "area": "Majgaon",
    "pincode": "415612",
    "district": "RATNAGIRI"
  },
  {
    "area": "Makhajan S.O",
    "pincode": "415608",
    "district": "RATNAGIRI"
  },
  {
    "area": "Malan ",
    "pincode": "415724",
    "district": "RATNAGIRI"
  },
  {
    "area": "Maldoli ",
    "pincode": "415628",
    "district": "RATNAGIRI"
  },
  {
    "area": "Malghar ",
    "pincode": "415701",
    "district": "RATNAGIRI"
  },
  {
    "area": "Malgund S.O",
    "pincode": "415615",
    "district": "RATNAGIRI"
  },
  {
    "area": "Mandangad S.O",
    "pincode": "415203",
    "district": "RATNAGIRI"
  },
  {
    "area": "Mandivali ",
    "pincode": "415203",
    "district": "RATNAGIRI"
  },
  {
    "area": "Mandki ",
    "pincode": "415606",
    "district": "RATNAGIRI"
  },
  {
    "area": "Mandva ",
    "pincode": "415621",
    "district": "RATNAGIRI"
  },
  {
    "area": "Mani ",
    "pincode": "415709",
    "district": "RATNAGIRI"
  },
  {
    "area": "Manjare ",
    "pincode": "415620",
    "district": "RATNAGIRI"
  },
  {
    "area": "Maral ",
    "pincode": "415804",
    "district": "RATNAGIRI"
  },
  {
    "area": "Margatamhane S.O",
    "pincode": "415702",
    "district": "RATNAGIRI"
  },
  {
    "area": "Markandi S.O",
    "pincode": "415605",
    "district": "RATNAGIRI"
  },
  {
    "area": "Masrang ",
    "pincode": "415609",
    "district": "RATNAGIRI"
  },
  {
    "area": "Masu ",
    "pincode": "415726",
    "district": "RATNAGIRI"
  },
  {
    "area": "Math ",
    "pincode": "415803",
    "district": "RATNAGIRI"
  },
  {
    "area": "Matwan ",
    "pincode": "415712",
    "district": "RATNAGIRI"
  },
  {
    "area": "Mavlange ",
    "pincode": "415616",
    "district": "RATNAGIRI"
  },
  {
    "area": "Meghi ",
    "pincode": "415807",
    "district": "RATNAGIRI"
  },
  {
    "area": "Mervi ",
    "pincode": "415616",
    "district": "RATNAGIRI"
  },
  {
    "area": "Mhapral ",
    "pincode": "415203",
    "district": "RATNAGIRI"
  },
  {
    "area": "MIDC (RTG) S.O",
    "pincode": "415639",
    "district": "RATNAGIRI"
  },
  {
    "area": "Miland ",
    "pincode": "416704",
    "district": "RATNAGIRI"
  },
  {
    "area": "Miravane ",
    "pincode": "415701",
    "district": "RATNAGIRI"
  },
  {
    "area": "Mirjole ",
    "pincode": "415639",
    "district": "RATNAGIRI"
  },
  {
    "area": "Mirya ",
    "pincode": "415612",
    "district": "RATNAGIRI"
  },
  {
    "area": "Mithgavane ",
    "pincode": "415805",
    "district": "RATNAGIRI"
  },
  {
    "area": "Mohane ",
    "pincode": "415730",
    "district": "RATNAGIRI"
  },
  {
    "area": "Moor ",
    "pincode": "416704",
    "district": "RATNAGIRI"
  },
  {
    "area": "Moravane ",
    "pincode": "415604",
    "district": "RATNAGIRI"
  },
  {
    "area": "Morde ",
    "pincode": "415804",
    "district": "RATNAGIRI"
  },
  {
    "area": "Moroshi ",
    "pincode": "416702",
    "district": "RATNAGIRI"
  },
  {
    "area": "Morvande ",
    "pincode": "415709",
    "district": "RATNAGIRI"
  },
  {
    "area": "Mosam ",
    "pincode": "416702",
    "district": "RATNAGIRI"
  },
  {
    "area": "Muchari ",
    "pincode": "415611",
    "district": "RATNAGIRI"
  },
  {
    "area": "Mudhe Tarf Sawarda ",
    "pincode": "415606",
    "district": "RATNAGIRI"
  },
  {
    "area": "Mugij ",
    "pincode": "415716",
    "district": "RATNAGIRI"
  },
  {
    "area": "Mumbake ",
    "pincode": "415727",
    "district": "RATNAGIRI"
  },
  {
    "area": "Mundhar ",
    "pincode": "415719",
    "district": "RATNAGIRI"
  },
  {
    "area": "Mundhe ",
    "pincode": "415602",
    "district": "RATNAGIRI"
  },
  {
    "area": "Murdav ",
    "pincode": "415608",
    "district": "RATNAGIRI"
  },
  {
    "area": "Murde ",
    "pincode": "415709",
    "district": "RATNAGIRI"
  },
  {
    "area": "Murshi ",
    "pincode": "415801",
    "district": "RATNAGIRI"
  },
  {
    "area": "Murtavade ",
    "pincode": "415641",
    "district": "RATNAGIRI"
  },
  {
    "area": "Murud ",
    "pincode": "415713",
    "district": "RATNAGIRI"
  },
  {
    "area": "Musad ",
    "pincode": "415605",
    "district": "RATNAGIRI"
  },
  {
    "area": "Nachane ",
    "pincode": "415639",
    "district": "RATNAGIRI"
  },
  {
    "area": "Nakhare ",
    "pincode": "415616",
    "district": "RATNAGIRI"
  },
  {
    "area": "Nanar ",
    "pincode": "416702",
    "district": "RATNAGIRI"
  },
  {
    "area": "Nandgaon (CPN) S.O",
    "pincode": "415607",
    "district": "RATNAGIRI"
  },
  {
    "area": "Nandgaon (Khed) ",
    "pincode": "415709",
    "district": "RATNAGIRI"
  },
  {
    "area": "Nandivase ",
    "pincode": "415604",
    "district": "RATNAGIRI"
  },
  {
    "area": "Nandivili ",
    "pincode": "415730",
    "district": "RATNAGIRI"
  },
  {
    "area": "Nanij ",
    "pincode": "415803",
    "district": "RATNAGIRI"
  },
  {
    "area": "Nante ",
    "pincode": "415712",
    "district": "RATNAGIRI"
  },
  {
    "area": "Narduve ",
    "pincode": "415608",
    "district": "RATNAGIRI"
  },
  {
    "area": "Narvan ",
    "pincode": "415728",
    "district": "RATNAGIRI"
  },
  {
    "area": "Nata S.O",
    "pincode": "415806",
    "district": "RATNAGIRI"
  },
  {
    "area": "Natunagar ",
    "pincode": "415640",
    "district": "RATNAGIRI"
  },
  {
    "area": "Nayari ",
    "pincode": "415610",
    "district": "RATNAGIRI"
  },
  {
    "area": "Nayashi ",
    "pincode": "415608",
    "district": "RATNAGIRI"
  },
  {
    "area": "Nevare ",
    "pincode": "415620",
    "district": "RATNAGIRI"
  },
  {
    "area": "Nigadi ",
    "pincode": "415208",
    "district": "RATNAGIRI"
  },
  {
    "area": "Nigundal ",
    "pincode": "415719",
    "district": "RATNAGIRI"
  },
  {
    "area": "Nilavane ",
    "pincode": "415621",
    "district": "RATNAGIRI"
  },
  {
    "area": "Nirul ",
    "pincode": "415616",
    "district": "RATNAGIRI"
  },
  {
    "area": "Nirvhal ",
    "pincode": "415701",
    "district": "RATNAGIRI"
  },
  {
    "area": "Nive Budruk ",
    "pincode": "415804",
    "district": "RATNAGIRI"
  },
  {
    "area": "Niveli ",
    "pincode": "416702",
    "district": "RATNAGIRI"
  },
  {
    "area": "Nivendi ",
    "pincode": "415615",
    "district": "RATNAGIRI"
  },
  {
    "area": "Nivsar ",
    "pincode": "415803",
    "district": "RATNAGIRI"
  },
  {
    "area": "Niwali (CPN) S.O",
    "pincode": "415641",
    "district": "RATNAGIRI"
  },
  {
    "area": "Niwali ",
    "pincode": "415639",
    "district": "RATNAGIRI"
  },
  {
    "area": "Omali ",
    "pincode": "415628",
    "district": "RATNAGIRI"
  },
  {
    "area": "Oni navase ",
    "pincode": "415706",
    "district": "RATNAGIRI"
  },
  {
    "area": "Oni S.O",
    "pincode": "416705",
    "district": "RATNAGIRI"
  },
  {
    "area": "Ori ",
    "pincode": "415620",
    "district": "RATNAGIRI"
  },
  {
    "area": "Oshivale ",
    "pincode": "416704",
    "district": "RATNAGIRI"
  },
  {
    "area": "Ovali ",
    "pincode": "415604",
    "district": "RATNAGIRI"
  },
  {
    "area": "Ozare ",
    "pincode": "416705",
    "district": "RATNAGIRI"
  },
  {
    "area": "Ozare Budruk ",
    "pincode": "415801",
    "district": "RATNAGIRI"
  },
  {
    "area": "Ozare Khurd ",
    "pincode": "415804",
    "district": "RATNAGIRI"
  },
  {
    "area": "Pachal S.O (Ratnagiri)",
    "pincode": "416704",
    "district": "RATNAGIRI"
  },
  {
    "area": "Pachambe ",
    "pincode": "415607",
    "district": "RATNAGIRI"
  },
  {
    "area": "Pachavali ",
    "pincode": "415712",
    "district": "RATNAGIRI"
  },
  {
    "area": "Pacheri Sada ",
    "pincode": "415726",
    "district": "RATNAGIRI"
  },
  {
    "area": "Padave ",
    "pincode": "416702",
    "district": "RATNAGIRI"
  },
  {
    "area": "Padve ",
    "pincode": "415214",
    "district": "RATNAGIRI"
  },
  {
    "area": "Padve ",
    "pincode": "415613",
    "district": "RATNAGIRI"
  },
  {
    "area": "Paj ",
    "pincode": "415713",
    "district": "RATNAGIRI"
  },
  {
    "area": "Palavani ",
    "pincode": "415712",
    "district": "RATNAGIRI"
  },
  {
    "area": "Palgad S.O",
    "pincode": "415716",
    "district": "RATNAGIRI"
  },
  {
    "area": "Pali (RTG) S.O",
    "pincode": "415803",
    "district": "RATNAGIRI"
  },
  {
    "area": "Pali(CPN) ",
    "pincode": "415605",
    "district": "RATNAGIRI"
  },
  {
    "area": "Palpene ",
    "pincode": "415724",
    "district": "RATNAGIRI"
  },
  {
    "area": "Palshet ",
    "pincode": "415703",
    "district": "RATNAGIRI"
  },
  {
    "area": "Palu ",
    "pincode": "416701",
    "district": "RATNAGIRI"
  },
  {
    "area": "Palvan ",
    "pincode": "415641",
    "district": "RATNAGIRI"
  },
  {
    "area": "Panchnadi ",
    "pincode": "415712",
    "district": "RATNAGIRI"
  },
  {
    "area": "Panderi S.O",
    "pincode": "415214",
    "district": "RATNAGIRI"
  },
  {
    "area": "Pangare ",
    "pincode": "416702",
    "district": "RATNAGIRI"
  },
  {
    "area": "Pangari ",
    "pincode": "415719",
    "district": "RATNAGIRI"
  },
  {
    "area": "Pangari ",
    "pincode": "415639",
    "district": "RATNAGIRI"
  },
  {
    "area": "Pangari Tarf Haveli ",
    "pincode": "415711",
    "district": "RATNAGIRI"
  },
  {
    "area": "Pangari Tarf Velamb ",
    "pincode": "415724",
    "district": "RATNAGIRI"
  },
  {
    "area": "Panhale ",
    "pincode": "415643",
    "district": "RATNAGIRI"
  },
  {
    "area": "Panhale Kazi ",
    "pincode": "415711",
    "district": "RATNAGIRI"
  },
  {
    "area": "Panhale Tarf Saundal ",
    "pincode": "416702",
    "district": "RATNAGIRI"
  },
  {
    "area": "Panhalje ",
    "pincode": "415727",
    "district": "RATNAGIRI"
  },
  {
    "area": "Panval ",
    "pincode": "415619",
    "district": "RATNAGIRI"
  },
  {
    "area": "Parchuri ",
    "pincode": "415719",
    "district": "RATNAGIRI"
  },
  {
    "area": "Parchuri ",
    "pincode": "415637",
    "district": "RATNAGIRI"
  },
  {
    "area": "Parshuram ",
    "pincode": "415605",
    "district": "RATNAGIRI"
  },
  {
    "area": "Parule ",
    "pincode": "416704",
    "district": "RATNAGIRI"
  },
  {
    "area": "Pate Pillavali ",
    "pincode": "415641",
    "district": "RATNAGIRI"
  },
  {
    "area": "Patgaon ",
    "pincode": "415804",
    "district": "RATNAGIRI"
  },
  {
    "area": "Patpanhale ",
    "pincode": "415724",
    "district": "RATNAGIRI"
  },
  {
    "area": "Pawas S.O",
    "pincode": "415616",
    "district": "RATNAGIRI"
  },
  {
    "area": "Pedhambe ",
    "pincode": "415603",
    "district": "RATNAGIRI"
  },
  {
    "area": "Pedhe ",
    "pincode": "415605",
    "district": "RATNAGIRI"
  },
  {
    "area": "Pendkhale ",
    "pincode": "416713",
    "district": "RATNAGIRI"
  },
  {
    "area": "Peve ",
    "pincode": "415214",
    "district": "RATNAGIRI"
  },
  {
    "area": "Peve ",
    "pincode": "415719",
    "district": "RATNAGIRI"
  },
  {
    "area": "Phansavale ",
    "pincode": "415612",
    "district": "RATNAGIRI"
  },
  {
    "area": "Phansavane ",
    "pincode": "415610",
    "district": "RATNAGIRI"
  },
  {
    "area": "Phansop ",
    "pincode": "415612",
    "district": "RATNAGIRI"
  },
  {
    "area": "Phansu ",
    "pincode": "415711",
    "district": "RATNAGIRI"
  },
  {
    "area": "Pilavali ",
    "pincode": "415641",
    "district": "RATNAGIRI"
  },
  {
    "area": "Pimpar ",
    "pincode": "415703",
    "district": "RATNAGIRI"
  },
  {
    "area": "Pimpli Khurd ",
    "pincode": "415604",
    "district": "RATNAGIRI"
  },
  {
    "area": "Pimploli ",
    "pincode": "415202",
    "district": "RATNAGIRI"
  },
  {
    "area": "Pirandavane ",
    "pincode": "415617",
    "district": "RATNAGIRI"
  },
  {
    "area": "Pirandavane ",
    "pincode": "415611",
    "district": "RATNAGIRI"
  },
  {
    "area": "Pisai ",
    "pincode": "415712",
    "district": "RATNAGIRI"
  },
  {
    "area": "Pochari ",
    "pincode": "415620",
    "district": "RATNAGIRI"
  },
  {
    "area": "Pomendi ",
    "pincode": "415724",
    "district": "RATNAGIRI"
  },
  {
    "area": "Pomendi Budruk ",
    "pincode": "415612",
    "district": "RATNAGIRI"
  },
  {
    "area": "Pomendi Khurd ",
    "pincode": "415612",
    "district": "RATNAGIRI"
  },
  {
    "area": "Pophali S.O",
    "pincode": "415601",
    "district": "RATNAGIRI"
  },
  {
    "area": "Pophlavane ",
    "pincode": "415727",
    "district": "RATNAGIRI"
  },
  {
    "area": "Posare ",
    "pincode": "415628",
    "district": "RATNAGIRI"
  },
  {
    "area": "Posare Budruk ",
    "pincode": "415718",
    "district": "RATNAGIRI"
  },
  {
    "area": "Poynar ",
    "pincode": "415710",
    "district": "RATNAGIRI"
  },
  {
    "area": "Prabhanvalli ",
    "pincode": "416701",
    "district": "RATNAGIRI"
  },
  {
    "area": "Prindavan ",
    "pincode": "416702",
    "district": "RATNAGIRI"
  },
  {
    "area": "Punas ",
    "pincode": "416712",
    "district": "RATNAGIRI"
  },
  {
    "area": "Purnagad ",
    "pincode": "415616",
    "district": "RATNAGIRI"
  },
  {
    "area": "Purye Tarfe Devale",
    "pincode": "415801",
    "district": "RATNAGIRI"
  },
  {
    "area": "Rai ",
    "pincode": "415620",
    "district": "RATNAGIRI"
  },
  {
    "area": "Rajapur S.O (Ratnagiri)",
    "pincode": "416702",
    "district": "RATNAGIRI"
  },
  {
    "area": "Rajapur Sub Div.",
    "pincode": "416702",
    "district": "RATNAGIRI"
  },
  {
    "area": "Rajivili ",
    "pincode": "415607",
    "district": "RATNAGIRI"
  },
  {
    "area": "Rajwadi ",
    "pincode": "416707",
    "district": "RATNAGIRI"
  },
  {
    "area": "Rajwadi ",
    "pincode": "415611",
    "district": "RATNAGIRI"
  },
  {
    "area": "Rampur S.O (Ratnagiri)",
    "pincode": "415701",
    "district": "RATNAGIRI"
  },
  {
    "area": "Ranpat ",
    "pincode": "415620",
    "district": "RATNAGIRI"
  },
  {
    "area": "Ratnagiri Collectorate S.O",
    "pincode": "415612",
    "district": "RATNAGIRI"
  },
  {
    "area": "RATNAGIRI DIVISION",
    "pincode": "415726",
    "district": "RATNAGIRI"
  },
  {
    "area": "Ratnagiri H.O",
    "pincode": "415612",
    "district": "RATNAGIRI"
  },
  {
    "area": "Ratnagiri ICH",
    "pincode": "415612",
    "district": "RATNAGIRI"
  },
  {
    "area": "Ratnagiri PH",
    "pincode": "415612",
    "district": "RATNAGIRI"
  },
  {
    "area": "RATNAGIRI SORTING",
    "pincode": "415612",
    "district": "RATNAGIRI"
  },
  {
    "area": "Ratnagiri Sorting L2R",
    "pincode": "415612",
    "district": "RATNAGIRI"
  },
  {
    "area": "Ratnagiri Sorting L2S",
    "pincode": "415615",
    "district": "RATNAGIRI"
  },
  {
    "area": "Ratnagiri Sorting L2U",
    "pincode": "415612",
    "district": "RATNAGIRI"
  },
  {
    "area": "Ratnagiri Sub Division",
    "pincode": "415612",
    "district": "RATNAGIRI"
  },
  {
    "area": "Raypatan ",
    "pincode": "416704",
    "district": "RATNAGIRI"
  },
  {
    "area": "RGPPL Anjanvel S.O",
    "pincode": "415634",
    "district": "RATNAGIRI"
  },
  {
    "area": "Ringane ",
    "pincode": "415643",
    "district": "RATNAGIRI"
  },
  {
    "area": "Roon ",
    "pincode": "416701",
    "district": "RATNAGIRI"
  },
  {
    "area": "Sada Jambhari ",
    "pincode": "415726",
    "district": "RATNAGIRI"
  },
  {
    "area": "Sadavali ",
    "pincode": "415804",
    "district": "RATNAGIRI"
  },
  {
    "area": "Sagave S.O",
    "pincode": "416709",
    "district": "RATNAGIRI"
  },
  {
    "area": "Saitavada S.O",
    "pincode": "415613",
    "district": "RATNAGIRI"
  },
  {
    "area": "Sakhar ",
    "pincode": "415718",
    "district": "RATNAGIRI"
  },
  {
    "area": "Sakhar ",
    "pincode": "416702",
    "district": "RATNAGIRI"
  },
  {
    "area": "Sakhari Agar ",
    "pincode": "415729",
    "district": "RATNAGIRI"
  },
  {
    "area": "Sakhari Budruk ",
    "pincode": "415724",
    "district": "RATNAGIRI"
  },
  {
    "area": "Sakhari Trishul ",
    "pincode": "415724",
    "district": "RATNAGIRI"
  },
  {
    "area": "Sakharpa S.O",
    "pincode": "415801",
    "district": "RATNAGIRI"
  },
  {
    "area": "Sakhloli ",
    "pincode": "415712",
    "district": "RATNAGIRI"
  },
  {
    "area": "Sakhroli ",
    "pincode": "415710",
    "district": "RATNAGIRI"
  },
  {
    "area": "Salpe ",
    "pincode": "415802",
    "district": "RATNAGIRI"
  },
  {
    "area": "Sangave ",
    "pincode": "415804",
    "district": "RATNAGIRI"
  },
  {
    "area": "Sanglat ",
    "pincode": "415709",
    "district": "RATNAGIRI"
  },
  {
    "area": "Sangmeshwar S.O",
    "pincode": "415611",
    "district": "RATNAGIRI"
  },
  {
    "area": "Sapirili ",
    "pincode": "415718",
    "district": "RATNAGIRI"
  },
  {
    "area": "Sarang ",
    "pincode": "415712",
    "district": "RATNAGIRI"
  },
  {
    "area": "Sasale ",
    "pincode": "416702",
    "district": "RATNAGIRI"
  },
  {
    "area": "Satavali ",
    "pincode": "416701",
    "district": "RATNAGIRI"
  },
  {
    "area": "Satere Tarf Natu ",
    "pincode": "415716",
    "district": "RATNAGIRI"
  },
  {
    "area": "Sathare Bambar ",
    "pincode": "415803",
    "district": "RATNAGIRI"
  },
  {
    "area": "Satvingaon ",
    "pincode": "415708",
    "district": "RATNAGIRI"
  },
  {
    "area": "Saundal ",
    "pincode": "416704",
    "district": "RATNAGIRI"
  },
  {
    "area": "Savdav ",
    "pincode": "416704",
    "district": "RATNAGIRI"
  },
  {
    "area": "Saveni ",
    "pincode": "415709",
    "district": "RATNAGIRI"
  },
  {
    "area": "Savnas ",
    "pincode": "415727",
    "district": "RATNAGIRI"
  },
  {
    "area": "Sawarda S.O",
    "pincode": "415606",
    "district": "RATNAGIRI"
  },
  {
    "area": "Sayale ",
    "pincode": "415804",
    "district": "RATNAGIRI"
  },
  {
    "area": "Sheldi ",
    "pincode": "415722",
    "district": "RATNAGIRI"
  },
  {
    "area": "Shembavane ",
    "pincode": "415611",
    "district": "RATNAGIRI"
  },
  {
    "area": "Shindi ",
    "pincode": "415715",
    "district": "RATNAGIRI"
  },
  {
    "area": "Shingri ",
    "pincode": "415621",
    "district": "RATNAGIRI"
  },
  {
    "area": "Shipole ",
    "pincode": "415208",
    "district": "RATNAGIRI"
  },
  {
    "area": "Shiposhi S.O",
    "pincode": "415802",
    "district": "RATNAGIRI"
  },
  {
    "area": "Shir ",
    "pincode": "415724",
    "district": "RATNAGIRI"
  },
  {
    "area": "Shiral S.O",
    "pincode": "415628",
    "district": "RATNAGIRI"
  },
  {
    "area": "Shirambavali ",
    "pincode": "415803",
    "district": "RATNAGIRI"
  },
  {
    "area": "Shirambe ",
    "pincode": "415641",
    "district": "RATNAGIRI"
  },
  {
    "area": "Shiravali ",
    "pincode": "415643",
    "district": "RATNAGIRI"
  },
  {
    "area": "Shirgaon (CPN) S.O",
    "pincode": "415602",
    "district": "RATNAGIRI"
  },
  {
    "area": "Shirgaon (RTG) S.O",
    "pincode": "415629",
    "district": "RATNAGIRI"
  },
  {
    "area": "Shirgaon ",
    "pincode": "415715",
    "district": "RATNAGIRI"
  },
  {
    "area": "Shirkhal ",
    "pincode": "415716",
    "district": "RATNAGIRI"
  },
  {
    "area": "Shirshi ",
    "pincode": "415727",
    "district": "RATNAGIRI"
  },
  {
    "area": "Shirsoli ",
    "pincode": "415712",
    "district": "RATNAGIRI"
  },
  {
    "area": "Shiv Budruk ",
    "pincode": "415709",
    "district": "RATNAGIRI"
  },
  {
    "area": "Shivaji Nagar (RTG) S.O",
    "pincode": "415612",
    "district": "RATNAGIRI"
  },
  {
    "area": "Shivane Budruk ",
    "pincode": "416713",
    "district": "RATNAGIRI"
  },
  {
    "area": "Shivane Khurd ",
    "pincode": "416702",
    "district": "RATNAGIRI"
  },
  {
    "area": "Shivar Ambere ",
    "pincode": "415626",
    "district": "RATNAGIRI"
  },
  {
    "area": "Shivtar ",
    "pincode": "415709",
    "district": "RATNAGIRI"
  },
  {
    "area": "Shringarpur ",
    "pincode": "415610",
    "district": "RATNAGIRI"
  },
  {
    "area": "Shringartali S.O",
    "pincode": "415724",
    "district": "RATNAGIRI"
  },
  {
    "area": "Solgaon ",
    "pincode": "416702",
    "district": "RATNAGIRI"
  },
  {
    "area": "Soliwade ",
    "pincode": "416704",
    "district": "RATNAGIRI"
  },
  {
    "area": "Someshwar ",
    "pincode": "415612",
    "district": "RATNAGIRI"
  },
  {
    "area": "Sonavade ",
    "pincode": "415611",
    "district": "RATNAGIRI"
  },
  {
    "area": "Sondeghar ",
    "pincode": "415716",
    "district": "RATNAGIRI"
  },
  {
    "area": "Songaon ",
    "pincode": "415722",
    "district": "RATNAGIRI"
  },
  {
    "area": "Soveli ",
    "pincode": "415203",
    "district": "RATNAGIRI"
  },
  {
    "area": "SRO RMS BM DN RATNAGIRI",
    "pincode": "415612",
    "district": "RATNAGIRI"
  },
  {
    "area": "Sukivili ",
    "pincode": "415621",
    "district": "RATNAGIRI"
  },
  {
    "area": "Sukondi ",
    "pincode": "415714",
    "district": "RATNAGIRI"
  },
  {
    "area": "Susheri ",
    "pincode": "415709",
    "district": "RATNAGIRI"
  },
  {
    "area": "Tadil ",
    "pincode": "415712",
    "district": "RATNAGIRI"
  },
  {
    "area": "Takede ",
    "pincode": "415203",
    "district": "RATNAGIRI"
  },
  {
    "area": "Tala Mandva ",
    "pincode": "415621",
    "district": "RATNAGIRI"
  },
  {
    "area": "Talavade ",
    "pincode": "415607",
    "district": "RATNAGIRI"
  },
  {
    "area": "Talavade ",
    "pincode": "416712",
    "district": "RATNAGIRI"
  },
  {
    "area": "Talavade ",
    "pincode": "416704",
    "district": "RATNAGIRI"
  },
  {
    "area": "Talavali S.O",
    "pincode": "415719",
    "district": "RATNAGIRI"
  },
  {
    "area": "Talekante ",
    "pincode": "415637",
    "district": "RATNAGIRI"
  },
  {
    "area": "Talgaon ",
    "pincode": "416702",
    "district": "RATNAGIRI"
  },
  {
    "area": "Talsar ",
    "pincode": "415602",
    "district": "RATNAGIRI"
  },
  {
    "area": "Talsure ",
    "pincode": "415712",
    "district": "RATNAGIRI"
  },
  {
    "area": "Talvat ",
    "pincode": "415718",
    "district": "RATNAGIRI"
  },
  {
    "area": "Tambedi ",
    "pincode": "415610",
    "district": "RATNAGIRI"
  },
  {
    "area": "Tamhane ",
    "pincode": "415804",
    "district": "RATNAGIRI"
  },
  {
    "area": "Tamhane ",
    "pincode": "416704",
    "district": "RATNAGIRI"
  },
  {
    "area": "Tamhanmala ",
    "pincode": "415628",
    "district": "RATNAGIRI"
  },
  {
    "area": "Tanali ",
    "pincode": "415702",
    "district": "RATNAGIRI"
  },
  {
    "area": "Tangar ",
    "pincode": "415712",
    "district": "RATNAGIRI"
  },
  {
    "area": "Taral ",
    "pincode": "416702",
    "district": "RATNAGIRI"
  },
  {
    "area": "Tarval ",
    "pincode": "415620",
    "district": "RATNAGIRI"
  },
  {
    "area": "Tavsal ",
    "pincode": "415613",
    "district": "RATNAGIRI"
  },
  {
    "area": "Tembye ",
    "pincode": "415612",
    "district": "RATNAGIRI"
  },
  {
    "area": "Teru ",
    "pincode": "415605",
    "district": "RATNAGIRI"
  },
  {
    "area": "Terye ",
    "pincode": "415611",
    "district": "RATNAGIRI"
  },
  {
    "area": "Tetavali ",
    "pincode": "415711",
    "district": "RATNAGIRI"
  },
  {
    "area": "Tide ",
    "pincode": "415202",
    "district": "RATNAGIRI"
  },
  {
    "area": "Tike ",
    "pincode": "416712",
    "district": "RATNAGIRI"
  },
  {
    "area": "Tilak Memorial (RTG) S.O",
    "pincode": "415612",
    "district": "RATNAGIRI"
  },
  {
    "area": "Tisangi ",
    "pincode": "415709",
    "district": "RATNAGIRI"
  },
  {
    "area": "Tise ",
    "pincode": "415709",
    "district": "RATNAGIRI"
  },
  {
    "area": "Tiware ",
    "pincode": "415604",
    "district": "RATNAGIRI"
  },
  {
    "area": "Tiware ",
    "pincode": "416705",
    "district": "RATNAGIRI"
  },
  {
    "area": "Tiware Ghera Prachitgad ",
    "pincode": "415610",
    "district": "RATNAGIRI"
  },
  {
    "area": "Tiware Medhe Tarfe Devale",
    "pincode": "415801",
    "district": "RATNAGIRI"
  },
  {
    "area": "Tonade ",
    "pincode": "415612",
    "district": "RATNAGIRI"
  },
  {
    "area": "Tondali ",
    "pincode": "415641",
    "district": "RATNAGIRI"
  },
  {
    "area": "Tulsani ",
    "pincode": "415804",
    "district": "RATNAGIRI"
  },
  {
    "area": "Tulshi ",
    "pincode": "415203",
    "district": "RATNAGIRI"
  },
  {
    "area": "Tulshi Khurd ",
    "pincode": "415640",
    "district": "RATNAGIRI"
  },
  {
    "area": "Tural ",
    "pincode": "415609",
    "district": "RATNAGIRI"
  },
  {
    "area": "Turambav ",
    "pincode": "415641",
    "district": "RATNAGIRI"
  },
  {
    "area": "Ubhale ",
    "pincode": "415702",
    "district": "RATNAGIRI"
  },
  {
    "area": "Uchat ",
    "pincode": "415715",
    "district": "RATNAGIRI"
  },
  {
    "area": "Udhale Budruk ",
    "pincode": "415640",
    "district": "RATNAGIRI"
  },
  {
    "area": "Ujgaon ",
    "pincode": "415804",
    "district": "RATNAGIRI"
  },
  {
    "area": "Ukshi ",
    "pincode": "415637",
    "district": "RATNAGIRI"
  },
  {
    "area": "Umare ",
    "pincode": "415610",
    "district": "RATNAGIRI"
  },
  {
    "area": "Umbarghar ",
    "pincode": "415706",
    "district": "RATNAGIRI"
  },
  {
    "area": "Umbarle ",
    "pincode": "415712",
    "district": "RATNAGIRI"
  },
  {
    "area": "Umrath ",
    "pincode": "415728",
    "district": "RATNAGIRI"
  },
  {
    "area": "Umroli ",
    "pincode": "415702",
    "district": "RATNAGIRI"
  },
  {
    "area": "Umroli ",
    "pincode": "415208",
    "district": "RATNAGIRI"
  },
  {
    "area": "Upale ",
    "pincode": "416712",
    "district": "RATNAGIRI"
  },
  {
    "area": "Upale ",
    "pincode": "416702",
    "district": "RATNAGIRI"
  },
  {
    "area": "Vadad ",
    "pincode": "415701",
    "district": "RATNAGIRI"
  },
  {
    "area": "Vadad Hasol ",
    "pincode": "416713",
    "district": "RATNAGIRI"
  },
  {
    "area": "Vadgaon ",
    "pincode": "416701",
    "district": "RATNAGIRI"
  },
  {
    "area": "Vahal ",
    "pincode": "415641",
    "district": "RATNAGIRI"
  },
  {
    "area": "Vakavali S.O",
    "pincode": "415711",
    "district": "RATNAGIRI"
  },
  {
    "area": "Valote ",
    "pincode": "415202",
    "district": "RATNAGIRI"
  },
  {
    "area": "Vandri ",
    "pincode": "415637",
    "district": "RATNAGIRI"
  },
  {
    "area": "Vangule ",
    "pincode": "416701",
    "district": "RATNAGIRI"
  },
  {
    "area": "Vanzole ",
    "pincode": "415804",
    "district": "RATNAGIRI"
  },
  {
    "area": "Varawade ",
    "pincode": "415620",
    "district": "RATNAGIRI"
  },
  {
    "area": "Varnoshi Tarf Panchanadi ",
    "pincode": "415712",
    "district": "RATNAGIRI"
  },
  {
    "area": "Varveli ",
    "pincode": "415703",
    "district": "RATNAGIRI"
  },
  {
    "area": "Veer ",
    "pincode": "415641",
    "district": "RATNAGIRI"
  },
  {
    "area": "Vehele ",
    "pincode": "415604",
    "district": "RATNAGIRI"
  },
  {
    "area": "Velamb ",
    "pincode": "415724",
    "district": "RATNAGIRI"
  },
  {
    "area": "Velas ",
    "pincode": "415208",
    "district": "RATNAGIRI"
  },
  {
    "area": "Veldur ",
    "pincode": "415703",
    "district": "RATNAGIRI"
  },
  {
    "area": "Velvand ",
    "pincode": "415619",
    "district": "RATNAGIRI"
  },
  {
    "area": "Velvi ",
    "pincode": "415712",
    "district": "RATNAGIRI"
  },
  {
    "area": "Veral ",
    "pincode": "415621",
    "district": "RATNAGIRI"
  },
  {
    "area": "Veral ",
    "pincode": "416712",
    "district": "RATNAGIRI"
  },
  {
    "area": "Veravali Budruk ",
    "pincode": "416701",
    "district": "RATNAGIRI"
  },
  {
    "area": "Veravali Khurd ",
    "pincode": "416701",
    "district": "RATNAGIRI"
  },
  {
    "area": "Veshvi S.O",
    "pincode": "415208",
    "district": "RATNAGIRI"
  },
  {
    "area": "Vetoshi ",
    "pincode": "415617",
    "district": "RATNAGIRI"
  },
  {
    "area": "Vhel ",
    "pincode": "415643",
    "district": "RATNAGIRI"
  },
  {
    "area": "Vilavade ",
    "pincode": "415643",
    "district": "RATNAGIRI"
  },
  {
    "area": "Vilye ",
    "pincode": "416702",
    "district": "RATNAGIRI"
  },
  {
    "area": "Visapur ",
    "pincode": "415716",
    "district": "RATNAGIRI"
  },
  {
    "area": "Wadavali ",
    "pincode": "416705",
    "district": "RATNAGIRI"
  },
  {
    "area": "Waghambe ",
    "pincode": "415728",
    "district": "RATNAGIRI"
  },
  {
    "area": "Waghangaon ",
    "pincode": "415643",
    "district": "RATNAGIRI"
  },
  {
    "area": "Waghivare ",
    "pincode": "415701",
    "district": "RATNAGIRI"
  },
  {
    "area": "Waghrat ",
    "pincode": "416712",
    "district": "RATNAGIRI"
  },
  {
    "area": "Waingane ",
    "pincode": "415804",
    "district": "RATNAGIRI"
  },
  {
    "area": "Waked ",
    "pincode": "415643",
    "district": "RATNAGIRI"
  },
  {
    "area": "Walope ",
    "pincode": "415605",
    "district": "RATNAGIRI"
  },
  {
    "area": "Walye ",
    "pincode": "416702",
    "district": "RATNAGIRI"
  },
  {
    "area": "Wanke ",
    "pincode": "415803",
    "district": "RATNAGIRI"
  },
  {
    "area": "Washi Tarf Devrukh ",
    "pincode": "415804",
    "district": "RATNAGIRI"
  },
  {
    "area": "Washi Tarf Sangmeshwar ",
    "pincode": "415611",
    "district": "RATNAGIRI"
  },
  {
    "area": "Watad ",
    "pincode": "415613",
    "district": "RATNAGIRI"
  },
  {
    "area": "Watul S.O",
    "pincode": "415643",
    "district": "RATNAGIRI"
  },
  {
    "area": "Wave ",
    "pincode": "415718",
    "district": "RATNAGIRI"
  },
  {
    "area": "Wavghar ",
    "pincode": "415711",
    "district": "RATNAGIRI"
  },
  {
    "area": "Welneshwar S.O",
    "pincode": "415729",
    "district": "RATNAGIRI"
  },
  {
    "area": "Yegaon ",
    "pincode": "415607",
    "district": "RATNAGIRI"
  },
  {
    "area": "Yelvan ",
    "pincode": "416704",
    "district": "RATNAGIRI"
  },
  {
    "area": "Yerdav ",
    "pincode": "416704",
    "district": "RATNAGIRI"
  },
  {
    "area": "Zapade ",
    "pincode": "416701",
    "district": "RATNAGIRI"
  },
  {
    "area": "Zare Wadi ",
    "pincode": "415619",
    "district": "RATNAGIRI"
  },
  {
    "area": "Zombadi ",
    "pincode": "415702",
    "district": "RATNAGIRI"
  },
  {
    "area": "",
    "pincode": "",
    "district": ""
  }
]
