[
  {
    "area": "Dandi ",
    "pincode": "401501",
    "district": "THANE"
  },
  {
    "area": "Darave ",
    "pincode": "400706",
    "district": "THANE"
  },
  {
    "area": "Dawale ",
    "pincode": "400612",
    "district": "THANE"
  },
  {
    "area": "Dehere ",
    "pincode": "401603",
    "district": "THANE"
  },
  {
    "area": "Dengachimet ",
    "pincode": "401603",
    "district": "THANE"
  },
  {
    "area": "Dhaniwari ",
    "pincode": "401606",
    "district": "THANE"
  },
  {
    "area": "Dhanoshi ",
    "pincode": "401603",
    "district": "THANE"
  },
  {
    "area": "Dhasai ",
    "pincode": "421601",
    "district": "THANE"
  },
  {
    "area": "Dhasai S.O",
    "pincode": "421402",
    "district": "THANE"
  },
  {
    "area": "Dhundalwadi ",
    "pincode": "401606",
    "district": "THANE"
  },
  {
    "area": "Amane ",
    "pincode": "421302",
    "district": "THANE"
  },
  {
    "area": "Ambarje ",
    "pincode": "421601",
    "district": "THANE"
  },
  {
    "area": "Ambernath S.O",
    "pincode": "421501",
    "district": "THANE"
  },
  {
    "area": "Ambernath South S.O",
    "pincode": "421501",
    "district": "THANE"
  },
  {
    "area": "Ambernath Sub Division",
    "pincode": "421301",
    "district": "THANE"
  },
  {
    "area": "Andad ",
    "pincode": "421601",
    "district": "THANE"
  },
  {
    "area": "Angaon ",
    "pincode": "421302",
    "district": "THANE"
  },
  {
    "area": "Anjur ",
    "pincode": "421302",
    "district": "THANE"
  },
  {
    "area": "Apna Bazar S.O",
    "pincode": "400610",
    "district": "THANE"
  },
  {
    "area": "Asangaon ",
    "pincode": "421601",
    "district": "THANE"
  },
  {
    "area": "Ase ",
    "pincode": "401604",
    "district": "THANE"
  },
  {
    "area": "Ashagad ",
    "pincode": "401602",
    "district": "THANE"
  },
  {
    "area": "Atali ",
    "pincode": "421102",
    "district": "THANE"
  },
  {
    "area": "Atgaon ",
    "pincode": "421601",
    "district": "THANE"
  },
  {
    "area": "Audhani ",
    "pincode": "401403",
    "district": "THANE"
  },
  {
    "area": "Aware ",
    "pincode": "421601",
    "district": "THANE"
  },
  {
    "area": "Badlapur E.D. ",
    "pincode": "421503",
    "district": "THANE"
  },
  {
    "area": "Balegaon ",
    "pincode": "421402",
    "district": "THANE"
  },
  {
    "area": "Baliwali ",
    "pincode": "421303",
    "district": "THANE"
  },
  {
    "area": "Balkum S.O",
    "pincode": "400608",
    "district": "THANE"
  },
  {
    "area": "Bapugaon ",
    "pincode": "401602",
    "district": "THANE"
  },
  {
    "area": "Bategaon ",
    "pincode": "401501",
    "district": "THANE"
  },
  {
    "area": "Bavada ",
    "pincode": "401103",
    "district": "THANE"
  },
  {
    "area": "Belapur Node-- III S.O",
    "pincode": "400614",
    "district": "THANE"
  },
  {
    "area": "Belapur Node- V S.O",
    "pincode": "400614",
    "district": "THANE"
  },
  {
    "area": "Beriste ",
    "pincode": "401604",
    "district": "THANE"
  },
  {
    "area": "Bhaji Market S.O",
    "pincode": "421002",
    "district": "THANE"
  },
  {
    "area": "Bhatane ",
    "pincode": "401303",
    "district": "THANE"
  },
  {
    "area": "Bhatsanagar S.O",
    "pincode": "421603",
    "district": "THANE"
  },
  {
    "area": "Bhayander East S.O",
    "pincode": "401105",
    "district": "THANE"
  },
  {
    "area": "Bhayander West S.O",
    "pincode": "401101",
    "district": "THANE"
  },
  {
    "area": "Bhiwandi S.O",
    "pincode": "421308",
    "district": "THANE"
  },
  {
    "area": "Bhopoli ",
    "pincode": "401403",
    "district": "THANE"
  },
  {
    "area": "Bhuigaon ",
    "pincode": "401201",
    "district": "THANE"
  },
  {
    "area": "Birwadi ",
    "pincode": "421603",
    "district": "THANE"
  },
  {
    "area": "BNPL SP HUB THANE",
    "pincode": "400601",
    "district": "THANE"
  },
  {
    "area": "Bolinj ",
    "pincode": "401303",
    "district": "THANE"
  },
  {
    "area": "Borigaon ",
    "pincode": "401701",
    "district": "THANE"
  },
  {
    "area": "Bus Terminus",
    "pincode": "421002",
    "district": "THANE"
  },
  {
    "area": "Chandansar ",
    "pincode": "401303",
    "district": "THANE"
  },
  {
    "area": "Chande ",
    "pincode": "421601",
    "district": "THANE"
  },
  {
    "area": "Chandigaon ",
    "pincode": "401103",
    "district": "THANE"
  },
  {
    "area": "Chargaon ",
    "pincode": "421503",
    "district": "THANE"
  },
  {
    "area": "Charoti ",
    "pincode": "401602",
    "district": "THANE"
  },
  {
    "area": "Chas ",
    "pincode": "401604",
    "district": "THANE"
  },
  {
    "area": "Chikhal Dongre ",
    "pincode": "401301",
    "district": "THANE"
  },
  {
    "area": "Chikhale ",
    "pincode": "401602",
    "district": "THANE"
  },
  {
    "area": "Chimbipada ",
    "pincode": "421302",
    "district": "THANE"
  },
  {
    "area": "Chinchwali ",
    "pincode": "421302",
    "district": "THANE"
  },
  {
    "area": "Chitalsar Manpada ",
    "pincode": "400607",
    "district": "THANE"
  },
  {
    "area": "Chondhe Colony ",
    "pincode": "421601",
    "district": "THANE"
  },
  {
    "area": "Dabhad ",
    "pincode": "421302",
    "district": "THANE"
  },
  {
    "area": "Dabhadi ",
    "pincode": "401606",
    "district": "THANE"
  },
  {
    "area": "Dabheri ",
    "pincode": "401603",
    "district": "THANE"
  },
  {
    "area": "Dadade ",
    "pincode": "401605",
    "district": "THANE"
  },
  {
    "area": "Dahisar ",
    "pincode": "400612",
    "district": "THANE"
  },
  {
    "area": "Dahisar Tarapur ",
    "pincode": "401502",
    "district": "THANE"
  },
  {
    "area": "Dahtsar T ",
    "pincode": "401303",
    "district": "THANE"
  },
  {
    "area": "Dalkhan ",
    "pincode": "421601",
    "district": "THANE"
  },
  {
    "area": "Dandekarwadi S.O",
    "pincode": "421302",
    "district": "THANE"
  },
  {
    "area": "Dandi ",
    "pincode": "401501",
    "district": "THANE"
  },
  {
    "area": "Darave ",
    "pincode": "400706",
    "district": "THANE"
  },
  {
    "area": "Dawale ",
    "pincode": "400612",
    "district": "THANE"
  },
  {
    "area": "Dehere ",
    "pincode": "401603",
    "district": "THANE"
  },
  {
    "area": "Dengachimet ",
    "pincode": "401603",
    "district": "THANE"
  },
  {
    "area": "Dhaniwari ",
    "pincode": "401606",
    "district": "THANE"
  },
  {
    "area": "Dhanoshi ",
    "pincode": "401603",
    "district": "THANE"
  },
  {
    "area": "Dhasai ",
    "pincode": "421601",
    "district": "THANE"
  },
  {
    "area": "Dhasai S.O",
    "pincode": "421402",
    "district": "THANE"
  },
  {
    "area": "Dhundalwadi ",
    "pincode": "401606",
    "district": "THANE"
  },
  {
    "area": "Dighashi ",
    "pincode": "421302",
    "district": "THANE"
  },
  {
    "area": "Diwa ",
    "pincode": "400612",
    "district": "THANE"
  },
  {
    "area": "Diwa S.O",
    "pincode": "400612",
    "district": "THANE"
  },
  {
    "area": "Dohe ",
    "pincode": "421303",
    "district": "THANE"
  },
  {
    "area": "Dolhara ",
    "pincode": "401604",
    "district": "THANE"
  },
  {
    "area": "Dolkhamb ",
    "pincode": "421601",
    "district": "THANE"
  },
  {
    "area": "Dombivali I.A. S.O",
    "pincode": "421203",
    "district": "THANE"
  },
  {
    "area": "Dombivali S.O",
    "pincode": "421201",
    "district": "THANE"
  },
  {
    "area": "Dongri ",
    "pincode": "401606",
    "district": "THANE"
  },
  {
    "area": "Dongri ",
    "pincode": "401106",
    "district": "THANE"
  },
  {
    "area": "Dugad ",
    "pincode": "421302",
    "district": "THANE"
  },
  {
    "area": "Dunge ",
    "pincode": "421302",
    "district": "THANE"
  },
  {
    "area": "Durves ",
    "pincode": "401403",
    "district": "THANE"
  },
  {
    "area": "Dwarli ",
    "pincode": "421306",
    "district": "THANE"
  },
  {
    "area": "Fangloshi",
    "pincode": "421401",
    "district": "THANE"
  },
  {
    "area": "Ganeshpuri S.O",
    "pincode": "401206",
    "district": "THANE"
  },
  {
    "area": "Ganeshwadi S.O (Thane)",
    "pincode": "421306",
    "district": "THANE"
  },
  {
    "area": "Ganjad ",
    "pincode": "401602",
    "district": "THANE"
  },
  {
    "area": "Gargoan ",
    "pincode": "421303",
    "district": "THANE"
  },
  {
    "area": "Gegaon ",
    "pincode": "421403",
    "district": "THANE"
  },
  {
    "area": "Ghansoli S.O",
    "pincode": "400701",
    "district": "THANE"
  },
  {
    "area": "Ghiwali ",
    "pincode": "401502",
    "district": "THANE"
  },
  {
    "area": "Ghodbander ",
    "pincode": "401107",
    "district": "THANE"
  },
  {
    "area": "Ghodbunder Road",
    "pincode": "400615",
    "district": "THANE"
  },
  {
    "area": "Girgaon ",
    "pincode": "401606",
    "district": "THANE"
  },
  {
    "area": "Girij ",
    "pincode": "401201",
    "district": "THANE"
  },
  {
    "area": "Gokhale Road S.O (Thane)",
    "pincode": "400602",
    "district": "THANE"
  },
  {
    "area": "Gokhiware ",
    "pincode": "401208",
    "district": "THANE"
  },
  {
    "area": "Gomghar ",
    "pincode": "401604",
    "district": "THANE"
  },
  {
    "area": "Gorhe ",
    "pincode": "421303",
    "district": "THANE"
  },
  {
    "area": "Gowane ",
    "pincode": "401103",
    "district": "THANE"
  },
  {
    "area": "Gunde ",
    "pincode": "421601",
    "district": "THANE"
  },
  {
    "area": "Hamarapur ",
    "pincode": "421303",
    "district": "THANE"
  },
  {
    "area": "Holi Bazar ",
    "pincode": "401201",
    "district": "THANE"
  },
  {
    "area": "Jambhul ",
    "pincode": "421505",
    "district": "THANE"
  },
  {
    "area": "Jamsar ",
    "pincode": "401603",
    "district": "THANE"
  },
  {
    "area": "Jamshet ",
    "pincode": "401602",
    "district": "THANE"
  },
  {
    "area": "Jekegram S.O",
    "pincode": "400606",
    "district": "THANE"
  },
  {
    "area": "Juchandra ",
    "pincode": "401208",
    "district": "THANE"
  },
  {
    "area": "K.U.Bazar S.O",
    "pincode": "400703",
    "district": "THANE"
  },
  {
    "area": "Kainad ",
    "pincode": "401602",
    "district": "THANE"
  },
  {
    "area": "Kalamb ",
    "pincode": "401304",
    "district": "THANE"
  },
  {
    "area": "Kalambe ",
    "pincode": "421303",
    "district": "THANE"
  },
  {
    "area": "Kalamgaon ",
    "pincode": "421601",
    "district": "THANE"
  },
  {
    "area": "Kalher ",
    "pincode": "421302",
    "district": "THANE"
  },
  {
    "area": "Kalwa S.O",
    "pincode": "400605",
    "district": "THANE"
  },
  {
    "area": "Kalyan BPC",
    "pincode": "421301",
    "district": "THANE"
  },
  {
    "area": "Kalyan City H.O",
    "pincode": "421301",
    "district": "THANE"
  },
  {
    "area": "Kalyan D.C. S.O",
    "pincode": "421301",
    "district": "THANE"
  },
  {
    "area": "Kalyan RMS L2S",
    "pincode": "400601",
    "district": "THANE"
  },
  {
    "area": "Kalyan RMS L2U",
    "pincode": "400601",
    "district": "THANE"
  },
  {
    "area": "Kalyan RMS L2R",
    "pincode": "400601",
    "district": "THANE"
  },
  {
    "area": "Kalyan Rs S.O",
    "pincode": "421301",
    "district": "THANE"
  },
  {
    "area": "Kalyan Sub Division",
    "pincode": "421301",
    "district": "THANE"
  },
  {
    "area": "Kaman ",
    "pincode": "401208",
    "district": "THANE"
  },
  {
    "area": "Kanchad ",
    "pincode": "421303",
    "district": "THANE"
  },
  {
    "area": "Kansai S.O",
    "pincode": "421501",
    "district": "THANE"
  },
  {
    "area": "Karaj Gaon ",
    "pincode": "401602",
    "district": "THANE"
  },
  {
    "area": "Karand",
    "pincode": "421503",
    "district": "THANE"
  },
  {
    "area": "Karhe ",
    "pincode": "401603",
    "district": "THANE"
  },
  {
    "area": "Kasa Budruk ",
    "pincode": "401607",
    "district": "THANE"
  },
  {
    "area": "Kasara S.O (Thane)",
    "pincode": "421602",
    "district": "THANE"
  },
  {
    "area": "Kasarvadavali S.O",
    "pincode": "400615",
    "district": "THANE"
  },
  {
    "area": "Kasegaon ",
    "pincode": "421401",
    "district": "THANE"
  },
  {
    "area": "Kashi ",
    "pincode": "401107",
    "district": "THANE"
  },
  {
    "area": "Katemanivali S.O",
    "pincode": "421306",
    "district": "THANE"
  },
  {
    "area": "Kausa ",
    "pincode": "400612",
    "district": "THANE"
  },
  {
    "area": "Kelwa Road ",
    "pincode": "401401",
    "district": "THANE"
  },
  {
    "area": "Kev ",
    "pincode": "401403",
    "district": "THANE"
  },
  {
    "area": "Khadavali ",
    "pincode": "421605",
    "district": "THANE"
  },
  {
    "area": "Khaniwade ",
    "pincode": "401303",
    "district": "THANE"
  },
  {
    "area": "Khaniwali ",
    "pincode": "401204",
    "district": "THANE"
  },
  {
    "area": "Kharade ",
    "pincode": "421601",
    "district": "THANE"
  },
  {
    "area": "Kharbav ",
    "pincode": "421302",
    "district": "THANE"
  },
  {
    "area": "Khardi ",
    "pincode": "421601",
    "district": "THANE"
  },
  {
    "area": "Khare Ambiwali ",
    "pincode": "421303",
    "district": "THANE"
  },
  {
    "area": "Kharegaon ",
    "pincode": "401604",
    "district": "THANE"
  },
  {
    "area": "Kharid ",
    "pincode": "421403",
    "district": "THANE"
  },
  {
    "area": "Kharivali ",
    "pincode": "421403",
    "district": "THANE"
  },
  {
    "area": "Khariwali ",
    "pincode": "421303",
    "district": "THANE"
  },
  {
    "area": "Kharshet Umbroli",
    "pincode": "421401",
    "district": "THANE"
  },
  {
    "area": "Khodale ",
    "pincode": "401604",
    "district": "THANE"
  },
  {
    "area": "Khoni ",
    "pincode": "421204",
    "district": "THANE"
  },
  {
    "area": "Khuded ",
    "pincode": "401603",
    "district": "THANE"
  },
  {
    "area": "Khutal Baragaon ",
    "pincode": "421401",
    "district": "THANE"
  },
  {
    "area": "Khutghar ",
    "pincode": "421601",
    "district": "THANE"
  },
  {
    "area": "Kinholi S.O",
    "pincode": "421403",
    "district": "THANE"
  },
  {
    "area": "Kishore ",
    "pincode": "421401",
    "district": "THANE"
  },
  {
    "area": "Koch ",
    "pincode": "401604",
    "district": "THANE"
  },
  {
    "area": "Kochai ",
    "pincode": "401606",
    "district": "THANE"
  },
  {
    "area": "Kogade ",
    "pincode": "401603",
    "district": "THANE"
  },
  {
    "area": "Kolthan ",
    "pincode": "421401",
    "district": "THANE"
  },
  {
    "area": "Kon ",
    "pincode": "421311",
    "district": "THANE"
  },
  {
    "area": "Kondhan ",
    "pincode": "401403",
    "district": "THANE"
  },
  {
    "area": "Kone ",
    "pincode": "421303",
    "district": "THANE"
  },
  {
    "area": "Konkan Bhavan S.O",
    "pincode": "400614",
    "district": "THANE"
  },
  {
    "area": "Kopar Khairne S.O",
    "pincode": "400709",
    "district": "THANE"
  },
  {
    "area": "Kophrad ",
    "pincode": "401301",
    "district": "THANE"
  },
  {
    "area": "Kopri Colony S.O",
    "pincode": "400603",
    "district": "THANE"
  },
  {
    "area": "Kudan ",
    "pincode": "401502",
    "district": "THANE"
  },
  {
    "area": "Kulgaon S.O",
    "pincode": "421503",
    "district": "THANE"
  },
  {
    "area": "Kumbhawali ",
    "pincode": "401501",
    "district": "THANE"
  },
  {
    "area": "Kunde ",
    "pincode": "421302",
    "district": "THANE"
  },
  {
    "area": "Kurze ",
    "pincode": "401403",
    "district": "THANE"
  },
  {
    "area": "Kurze ",
    "pincode": "401606",
    "district": "THANE"
  },
  {
    "area": "Lenad Khurd ",
    "pincode": "421601",
    "district": "THANE"
  },
  {
    "area": "Lonad ",
    "pincode": "421302",
    "district": "THANE"
  },
  {
    "area": "Mahagaon ",
    "pincode": "401501",
    "district": "THANE"
  },
  {
    "area": "Mahapoli ",
    "pincode": "421302",
    "district": "THANE"
  },
  {
    "area": "Majgaon ",
    "pincode": "421401",
    "district": "THANE"
  },
  {
    "area": "Mal ",
    "pincode": "421402",
    "district": "THANE"
  },
  {
    "area": "Mala ",
    "pincode": "421303",
    "district": "THANE"
  },
  {
    "area": "Malegaon ",
    "pincode": "421403",
    "district": "THANE"
  },
  {
    "area": "Malwada ",
    "pincode": "421303",
    "district": "THANE"
  },
  {
    "area": "Mamnoli ",
    "pincode": "421103",
    "district": "THANE"
  },
  {
    "area": "Manda S.O",
    "pincode": "421605",
    "district": "THANE"
  },
  {
    "area": "Mandvi ",
    "pincode": "401303",
    "district": "THANE"
  },
  {
    "area": "Mangrul ",
    "pincode": "421306",
    "district": "THANE"
  },
  {
    "area": "Manivali ",
    "pincode": "421102",
    "district": "THANE"
  },
  {
    "area": "Maniwali ",
    "pincode": "421303",
    "district": "THANE"
  },
  {
    "area": "Manjarli ",
    "pincode": "421503",
    "district": "THANE"
  },
  {
    "area": "Manjarli S.O",
    "pincode": "421503",
    "district": "THANE"
  },
  {
    "area": "Manpada S.O",
    "pincode": "421204",
    "district": "THANE"
  },
  {
    "area": "Medhi ",
    "pincode": "401605",
    "district": "THANE"
  },
  {
    "area": "Mhasa ",
    "pincode": "421401",
    "district": "THANE"
  },
  {
    "area": "Milhe ",
    "pincode": "421401",
    "district": "THANE"
  },
  {
    "area": "Millenium Business Park S.O",
    "pincode": "400710",
    "district": "THANE"
  },
  {
    "area": "Mira Road S.O",
    "pincode": "401107",
    "district": "THANE"
  },
  {
    "area": "Mira S.O",
    "pincode": "401107",
    "district": "THANE"
  },
  {
    "area": "Modgaon ",
    "pincode": "401606",
    "district": "THANE"
  },
  {
    "area": "Mohone S.O",
    "pincode": "421102",
    "district": "THANE"
  },
  {
    "area": "Moj ",
    "pincode": "421303",
    "district": "THANE"
  },
  {
    "area": "Mokhawane ",
    "pincode": "421602",
    "district": "THANE"
  },
  {
    "area": "Morhanda ",
    "pincode": "401604",
    "district": "THANE"
  },
  {
    "area": "Moroshi ",
    "pincode": "421401",
    "district": "THANE"
  },
  {
    "area": "Mugaon ",
    "pincode": "421403",
    "district": "THANE"
  },
  {
    "area": "Mumbra S.O",
    "pincode": "400612",
    "district": "THANE"
  },
  {
    "area": "Murbad S.O",
    "pincode": "421401",
    "district": "THANE"
  },
  {
    "area": "Murbe ",
    "pincode": "401501",
    "district": "THANE"
  },
  {
    "area": "Nadgaon ",
    "pincode": "421601",
    "district": "THANE"
  },
  {
    "area": "Naigaon ",
    "pincode": "401207",
    "district": "THANE"
  },
  {
    "area": "Nanapur ",
    "pincode": "401501",
    "district": "THANE"
  },
  {
    "area": "Nandgaon ",
    "pincode": "401603",
    "district": "THANE"
  },
  {
    "area": "Nandgaon Tarapur ",
    "pincode": "401501",
    "district": "THANE"
  },
  {
    "area": "Narivali ",
    "pincode": "421401",
    "district": "THANE"
  },
  {
    "area": "Narpad ",
    "pincode": "401601",
    "district": "THANE"
  },
  {
    "area": "Naupada S.O (Thane)",
    "pincode": "400602",
    "district": "THANE"
  },
  {
    "area": "Navghar ",
    "pincode": "401102",
    "district": "THANE"
  },
  {
    "area": "Nerul Node III S.O",
    "pincode": "400706",
    "district": "THANE"
  },
  {
    "area": "Nerul Node-II S.O",
    "pincode": "400706",
    "district": "THANE"
  },
  {
    "area": "Nerul Sec-48 S.O",
    "pincode": "400706",
    "district": "THANE"
  },
  {
    "area": "Netaji Bazar S.O",
    "pincode": "421505",
    "district": "THANE"
  },
  {
    "area": "Nikane ",
    "pincode": "401602",
    "district": "THANE"
  },
  {
    "area": "Nilje ",
    "pincode": "421204",
    "district": "THANE"
  },
  {
    "area": "Nyhale Budruk ",
    "pincode": "401603",
    "district": "THANE"
  },
  {
    "area": "Nyhale Khurdh ",
    "pincode": "401603",
    "district": "THANE"
  },
  {
    "area": "O.E.Ambernath S.O",
    "pincode": "421502",
    "district": "THANE"
  },
  {
    "area": "Pachhapur ",
    "pincode": "421302",
    "district": "THANE"
  },
  {
    "area": "Padgha S.O",
    "pincode": "421101",
    "district": "THANE"
  },
  {
    "area": "Padle ",
    "pincode": "421204",
    "district": "THANE"
  },
  {
    "area": "Palghar Division",
    "pincode": "421303",
    "district": "THANE"
  },
  {
    "area": "Palu ",
    "pincode": "421402",
    "district": "THANE"
  },
  {
    "area": "Parali ",
    "pincode": "421303",
    "district": "THANE"
  },
  {
    "area": "Pargaon ",
    "pincode": "401102",
    "district": "THANE"
  },
  {
    "area": "Parnali ",
    "pincode": "401504",
    "district": "THANE"
  },
  {
    "area": "Parol ",
    "pincode": "401303",
    "district": "THANE"
  },
  {
    "area": "Patgaon ",
    "pincode": "421401",
    "district": "THANE"
  },
  {
    "area": "Pathardi ",
    "pincode": "401603",
    "district": "THANE"
  },
  {
    "area": "Paye ",
    "pincode": "421302",
    "district": "THANE"
  },
  {
    "area": "Pelhar ",
    "pincode": "401208",
    "district": "THANE"
  },
  {
    "area": "Phalegaon ",
    "pincode": "421605",
    "district": "THANE"
  },
  {
    "area": "Pik ",
    "pincode": "421303",
    "district": "THANE"
  },
  {
    "area": "Pimpaloli ",
    "pincode": "421301",
    "district": "THANE"
  },
  {
    "area": "Pimpalshet ",
    "pincode": "401603",
    "district": "THANE"
  },
  {
    "area": "Pimplas ",
    "pincode": "421311",
    "district": "THANE"
  },
  {
    "area": "Pisavli ",
    "pincode": "421306",
    "district": "THANE"
  },
  {
    "area": "Piwali ",
    "pincode": "421601",
    "district": "THANE"
  },
  {
    "area": "Poshera ",
    "pincode": "401604",
    "district": "THANE"
  },
  {
    "area": "Posheri ",
    "pincode": "421303",
    "district": "THANE"
  },
  {
    "area": "Rai ",
    "pincode": "401101",
    "district": "THANE"
  },
  {
    "area": "Rajawali ",
    "pincode": "401208",
    "district": "THANE"
  },
  {
    "area": "Ramnagar S.O (Thane)",
    "pincode": "421201",
    "district": "THANE"
  },
  {
    "area": "Rankol ",
    "pincode": "401607",
    "district": "THANE"
  },
  {
    "area": "Ranshet ",
    "pincode": "401602",
    "district": "THANE"
  },
  {
    "area": "Rayate ",
    "pincode": "421103",
    "district": "THANE"
  },
  {
    "area": "Rehnal ",
    "pincode": "421302",
    "district": "THANE"
  },
  {
    "area": "Saiwan ",
    "pincode": "401602",
    "district": "THANE"
  },
  {
    "area": "Saiwan ",
    "pincode": "401303",
    "district": "THANE"
  },
  {
    "area": "Sakadbav ",
    "pincode": "421601",
    "district": "THANE"
  },
  {
    "area": "Sakhare ",
    "pincode": "401603",
    "district": "THANE"
  },
  {
    "area": "Sakharshet ",
    "pincode": "401603",
    "district": "THANE"
  },
  {
    "area": "Sakurli ",
    "pincode": "421601",
    "district": "THANE"
  },
  {
    "area": "Salwad ",
    "pincode": "401504",
    "district": "THANE"
  },
  {
    "area": "Sandozbaugh S.O",
    "pincode": "400607",
    "district": "THANE"
  },
  {
    "area": "Sanpada S.O",
    "pincode": "400705",
    "district": "THANE"
  },
  {
    "area": "Saralambe ",
    "pincode": "421601",
    "district": "THANE"
  },
  {
    "area": "Saralgaon ",
    "pincode": "421401",
    "district": "THANE"
  },
  {
    "area": "Saravali S.O",
    "pincode": "421311",
    "district": "THANE"
  },
  {
    "area": "Sarawali ",
    "pincode": "401501",
    "district": "THANE"
  },
  {
    "area": "Sasne ",
    "pincode": "421401",
    "district": "THANE"
  },
  {
    "area": "Sasun Navghar ",
    "pincode": "401208",
    "district": "THANE"
  },
  {
    "area": "Satiwai ",
    "pincode": "401208",
    "district": "THANE"
  },
  {
    "area": "Sawaroli ",
    "pincode": "421601",
    "district": "THANE"
  },
  {
    "area": "Sawata ",
    "pincode": "401602",
    "district": "THANE"
  },
  {
    "area": "Sayale ",
    "pincode": "421401",
    "district": "THANE"
  },
  {
    "area": "Shahad S.O",
    "pincode": "421103",
    "district": "THANE"
  },
  {
    "area": "Shahapur S.O (Thane)",
    "pincode": "421601",
    "district": "THANE"
  },
  {
    "area": "Shantinagar E.D. ",
    "pincode": "421302",
    "district": "THANE"
  },
  {
    "area": "Shastrinagar S.O (Thane)",
    "pincode": "421302",
    "district": "THANE"
  },
  {
    "area": "Shelar ",
    "pincode": "421302",
    "district": "THANE"
  },
  {
    "area": "Shenwa ",
    "pincode": "421601",
    "district": "THANE"
  },
  {
    "area": "Shere ",
    "pincode": "421601",
    "district": "THANE"
  },
  {
    "area": "Shigaon ",
    "pincode": "401501",
    "district": "THANE"
  },
  {
    "area": "Shirgaon ",
    "pincode": "421601",
    "district": "THANE"
  },
  {
    "area": "Shirol ",
    "pincode": "421602",
    "district": "THANE"
  },
  {
    "area": "Shiroshi ",
    "pincode": "421402",
    "district": "THANE"
  },
  {
    "area": "Shiroshi ",
    "pincode": "401603",
    "district": "THANE"
  },
  {
    "area": "Shivale ",
    "pincode": "421401",
    "district": "THANE"
  },
  {
    "area": "Shrirangnagar ",
    "pincode": "400608",
    "district": "THANE"
  },
  {
    "area": "Sogaon ",
    "pincode": "421403",
    "district": "THANE"
  },
  {
    "area": "Somta ",
    "pincode": "401403",
    "district": "THANE"
  },
  {
    "area": "Sonale ",
    "pincode": "421302",
    "district": "THANE"
  },
  {
    "area": "Sonale ",
    "pincode": "421303",
    "district": "THANE"
  },
  {
    "area": "SRO KALYAN RMS",
    "pincode": "400601",
    "district": "THANE"
  },
  {
    "area": "Station Road Unr-3 S.O",
    "pincode": "421002",
    "district": "THANE"
  },
  {
    "area": "Subhash Road S.O (Thane)",
    "pincode": "421301",
    "district": "THANE"
  },
  {
    "area": "Sukhasale ",
    "pincode": "401605",
    "district": "THANE"
  },
  {
    "area": "Talawada ",
    "pincode": "401607",
    "district": "THANE"
  },
  {
    "area": "Talegaon ",
    "pincode": "421401",
    "district": "THANE"
  },
  {
    "area": "Tanashi ",
    "pincode": "401503",
    "district": "THANE"
  },
  {
    "area": "Tandulwadi ",
    "pincode": "401102",
    "district": "THANE"
  },
  {
    "area": "Tansa ",
    "pincode": "421601",
    "district": "THANE"
  },
  {
    "area": "Tapasenagar ",
    "pincode": "400608",
    "district": "THANE"
  },
  {
    "area": "Tawa ",
    "pincode": "401607",
    "district": "THANE"
  },
  {
    "area": "Tembhare Kh",
    "pincode": "421601",
    "district": "THANE"
  },
  {
    "area": "Tembhikhodave ",
    "pincode": "401102",
    "district": "THANE"
  },
  {
    "area": "Tembhurli ",
    "pincode": "421601",
    "district": "THANE"
  },
  {
    "area": "Thakurli ",
    "pincode": "421201",
    "district": "THANE"
  },
  {
    "area": "Thane Bazar S.O",
    "pincode": "400601",
    "district": "THANE"
  },
  {
    "area": "Thane BPC",
    "pincode": "400601",
    "district": "THANE"
  },
  {
    "area": "Thane Division",
    "pincode": "400601",
    "district": "THANE"
  },
  {
    "area": "Thane East S.O",
    "pincode": "400603",
    "district": "THANE"
  },
  {
    "area": "Thane H.O",
    "pincode": "400601",
    "district": "THANE"
  },
  {
    "area": "THANE NSH",
    "pincode": "400601",
    "district": "THANE"
  },
  {
    "area": "THANE NSH COUNTER",
    "pincode": "400601",
    "district": "THANE"
  },
  {
    "area": "Thane R.S. S.O",
    "pincode": "400601",
    "district": "THANE"
  },
  {
    "area": "Thane Sub Division",
    "pincode": "400601",
    "district": "THANE"
  },
  {
    "area": "Thune ",
    "pincode": "421403",
    "district": "THANE"
  },
  {
    "area": "Tilaknagar S.O (Thane)",
    "pincode": "421201",
    "district": "THANE"
  },
  {
    "area": "Tilher ",
    "pincode": "401303",
    "district": "THANE"
  },
  {
    "area": "Titwala ",
    "pincode": "421605",
    "district": "THANE"
  },
  {
    "area": "Tokawade ",
    "pincode": "421402",
    "district": "THANE"
  },
  {
    "area": "Tulai ",
    "pincode": "421401",
    "district": "THANE"
  },
  {
    "area": "Turbhe Market S.O",
    "pincode": "400703",
    "district": "THANE"
  },
  {
    "area": "Turbhe S.O",
    "pincode": "400703",
    "district": "THANE"
  },
  {
    "area": "Tuse ",
    "pincode": "421303",
    "district": "THANE"
  },
  {
    "area": "Udhale ",
    "pincode": "401604",
    "district": "THANE"
  },
  {
    "area": "Udhave ",
    "pincode": "401606",
    "district": "THANE"
  },
  {
    "area": "Ulhasnagar 1",
    "pincode": "421002",
    "district": "THANE"
  },
  {
    "area": "Ulhasnagar 2 S.O",
    "pincode": "421002",
    "district": "THANE"
  },
  {
    "area": "Ulhasnagar 5 S.O",
    "pincode": "421005",
    "district": "THANE"
  },
  {
    "area": "Ulhasnagar-4 S.O",
    "pincode": "421004",
    "district": "THANE"
  },
  {
    "area": "Umela ",
    "pincode": "401202",
    "district": "THANE"
  },
  {
    "area": "Uplat ",
    "pincode": "401606",
    "district": "THANE"
  },
  {
    "area": "Usarani ",
    "pincode": "401102",
    "district": "THANE"
  },
  {
    "area": "Utawali ",
    "pincode": "421303",
    "district": "THANE"
  },
  {
    "area": "Uttan S.O",
    "pincode": "401106",
    "district": "THANE"
  },
  {
    "area": "Vadavali ",
    "pincode": "421302",
    "district": "THANE"
  },
  {
    "area": "Vadhavan ",
    "pincode": "401503",
    "district": "THANE"
  },
  {
    "area": "Vadpe ",
    "pincode": "421302",
    "district": "THANE"
  },
  {
    "area": "Vaholi ",
    "pincode": "421103",
    "district": "THANE"
  },
  {
    "area": "Vaishakhare ",
    "pincode": "421402",
    "district": "THANE"
  },
  {
    "area": "Vaitarna ",
    "pincode": "421601",
    "district": "THANE"
  },
  {
    "area": "Vajreshwari S.O",
    "pincode": "401204",
    "district": "THANE"
  },
  {
    "area": "Valiv ",
    "pincode": "401208",
    "district": "THANE"
  },
  {
    "area": "Valvande ",
    "pincode": "401603",
    "district": "THANE"
  },
  {
    "area": "Vangani ",
    "pincode": "421503",
    "district": "THANE"
  },
  {
    "area": "Varale ",
    "pincode": "421303",
    "district": "THANE"
  },
  {
    "area": "Varap ",
    "pincode": "421103",
    "district": "THANE"
  },
  {
    "area": "Varor ",
    "pincode": "401503",
    "district": "THANE"
  },
  {
    "area": "Vashala ",
    "pincode": "421602",
    "district": "THANE"
  },
  {
    "area": "Vashi BPC",
    "pincode": "400703",
    "district": "THANE"
  },
  {
    "area": "Vashi S.O (Thane)",
    "pincode": "400703",
    "district": "THANE"
  },
  {
    "area": "Vashi Sec-26 S.O",
    "pincode": "400703",
    "district": "THANE"
  },
  {
    "area": "Vashind E.D. ",
    "pincode": "421601",
    "district": "THANE"
  },
  {
    "area": "Vashi-VII S.O",
    "pincode": "400703",
    "district": "THANE"
  },
  {
    "area": "Vatar ",
    "pincode": "401301",
    "district": "THANE"
  },
  {
    "area": "Vedhe ",
    "pincode": "401204",
    "district": "THANE"
  },
  {
    "area": "Vehele ",
    "pincode": "421601",
    "district": "THANE"
  },
  {
    "area": "Vehloli ",
    "pincode": "421601",
    "district": "THANE"
  },
  {
    "area": "Vehloli K ",
    "pincode": "421601",
    "district": "THANE"
  },
  {
    "area": "Vengani ",
    "pincode": "401502",
    "district": "THANE"
  },
  {
    "area": "Veti ",
    "pincode": "401607",
    "district": "THANE"
  },
  {
    "area": "Vevji ",
    "pincode": "401606",
    "district": "THANE"
  },
  {
    "area": "Vidyashram S.O",
    "pincode": "421305",
    "district": "THANE"
  },
  {
    "area": "Vihigaon ",
    "pincode": "421602",
    "district": "THANE"
  },
  {
    "area": "Vilkos ",
    "pincode": "421303",
    "district": "THANE"
  },
  {
    "area": "Virathan Budruk ",
    "pincode": "401102",
    "district": "THANE"
  },
  {
    "area": "Vishnunagar S.O",
    "pincode": "421202",
    "district": "THANE"
  },
  {
    "area": "Wadi ",
    "pincode": "421306",
    "district": "THANE"
  },
  {
    "area": "Wagle I.E. S.O",
    "pincode": "400604",
    "district": "THANE"
  },
  {
    "area": "Waki ",
    "pincode": "401602",
    "district": "THANE"
  },
  {
    "area": "Waki ",
    "pincode": "421303",
    "district": "THANE"
  },
  {
    "area": "Waklan ",
    "pincode": "400612",
    "district": "THANE"
  },
  {
    "area": "Walhivare",
    "pincode": "421401",
    "district": "THANE"
  },
  {
    "area": "Yeranjad ",
    "pincode": "421503",
    "district": "THANE"
  },
  {
    "area": "Zap ",
    "pincode": "401603",
    "district": "THANE"
  },
  {
    "area": "Zari ",
    "pincode": "401606",
    "district": "THANE"
  }
]
